{"type": "FeatureCollection", "features": [{"type": "Feature", "properties": {"id": 1, "nombre": "Jardin Francisco de Orellana", "tipo": "educativo", "subtipo": "kindergarten", "barrio": "BONILLA ABARCA", "capa_origen": "ESTABLECIMEINTO_EDUCATIVO"}, "geometry": {"type": "Point", "coordinates": [-78.658182, -1.673093]}}, {"type": "Feature", "properties": {"id": 2, "nombre": "Colegio la Providencia", "tipo": "educativo", "subtipo": "school", "barrio": "BONILLA ABARCA", "capa_origen": "ESTABLECIMEINTO_EDUCATIVO"}, "geometry": {"type": "Point", "coordinates": [-78.662354, -1.672314]}}, {"type": "Feature", "properties": {"id": 3, "nombre": "Plaza Kids", "tipo": "educativo", "subtipo": "kindergarten", "barrio": "SAN JOSE DE TAPI", "capa_origen": "ESTABLECIMEINTO_EDUCATIVO"}, "geometry": {"type": "Point", "coordinates": [-78.670312, -1.655371]}}, {"type": "Feature", "properties": {"id": 4, "nombre": "Ernesto Urgiles", "tipo": "educativo", "subtipo": "kindergarten", "barrio": "VILLA GRANADA", "capa_origen": "ESTABLECIMEINTO_EDUCATIVO"}, "geometry": {"type": "Point", "coordinates": [-78.671451, -1.663232]}}, {"type": "Feature", "properties": {"id": 5, "nombre": "INSTITUTO TECNOL\u00d3GICO SUPERIOR DOCTOR MISAEL ACOSTA SOL\u00cdS", "tipo": "educativo", "subtipo": "college", "barrio": "BELLAVISTA", "capa_origen": "ESTABLECIMEINTO_EDUCATIVO"}, "geometry": {"type": "Point", "coordinates": [-78.640857, -1.672303]}}, {"type": "Feature", "properties": {"id": 6, "nombre": "INSTITUTO TECNOL\u00d3GICO SUPERIOR EUGENIO ESPEJO", "tipo": "educativo", "subtipo": "college", "barrio": "LAS RETAMAS", "capa_origen": "ESTABLECIMEINTO_EDUCATIVO"}, "geometry": {"type": "Point", "coordinates": [-78.663687, -1.662032]}}, {"type": "Feature", "properties": {"id": 7, "nombre": "INSTITUTO TECNOL\u00d3GICO SUPERIOR HARVARD COMPUT", "tipo": "educativo", "subtipo": "college", "barrio": "LA ESTACION", "capa_origen": "ESTABLECIMEINTO_EDUCATIVO"}, "geometry": {"type": "Point", "coordinates": [-78.653365, -1.668439]}}, {"type": "Feature", "properties": {"id": 8, "nombre": "INSTITUTO TECNOL\u00d3GICO SUPERIOR JOS\u00c9 ORTEGA Y GASSET", "tipo": "educativo", "subtipo": "college", "barrio": "LA PANADERIA", "capa_origen": "ESTABLECIMEINTO_EDUCATIVO"}, "geometry": {"type": "Point", "coordinates": [-78.649241, -1.669561]}}, {"type": "Feature", "properties": {"id": 9, "nombre": "INSTITUTO TECNOL\u00d3GICO SUPERIOR JUAN DE VELASCO", "tipo": "educativo", "subtipo": "college", "barrio": "JUAN DE VELAZCO", "capa_origen": "ESTABLECIMEINTO_EDUCATIVO"}, "geometry": {"type": "Point", "coordinates": [-78.637616, -1.672204]}}, {"type": "Feature", "properties": {"id": 10, "nombre": "INSTITUTO TECNOL\u00d3GICO SUPERIOR PURUHA", "tipo": "educativo", "subtipo": "college", "barrio": "EL PEDREGAL", "capa_origen": "ESTABLECIMEINTO_EDUCATIVO"}, "geometry": {"type": "Point", "coordinates": [-78.665912, -1.683516]}}, {"type": "Feature", "properties": {"id": 11, "nombre": "INSTITUTO TECNOL\u00d3GICO SUPERIOR RIOBAMBA", "tipo": "educativo", "subtipo": "school", "barrio": "SANTA FAZ", "capa_origen": "ESTABLECIMEINTO_EDUCATIVO"}, "geometry": {"type": "Point", "coordinates": [-78.663154, -1.660623]}}, {"type": "Feature", "properties": {"id": 12, "nombre": "INSTITUTO TECNOL\u00d3GICO SUPERIOR SAN GABRIEL", "tipo": "educativo", "subtipo": "college", "barrio": "LA ESTACION", "capa_origen": "ESTABLECIMEINTO_EDUCATIVO"}, "geometry": {"type": "Point", "coordinates": [-78.65373, -1.667669]}}, {"type": "Feature", "properties": {"id": 13, "nombre": "INSTITUTO SUPERIOR UNIVERSITARIO STANFORD", "tipo": "educativo", "subtipo": "college", "barrio": "LA MERCED", "capa_origen": "ESTABLECIMEINTO_EDUCATIVO"}, "geometry": {"type": "Point", "coordinates": [-78.651519, -1.675939]}}, {"type": "Feature", "properties": {"id": 14, "nombre": "Instituto Tecnol\u00f3gico Superior Vicente Anda Aguirre", "tipo": "educativo", "subtipo": "college", "barrio": "SESQUICENTENARIO", "capa_origen": "ESTABLECIMEINTO_EDUCATIVO"}, "geometry": {"type": "Point", "coordinates": [-78.664179, -1.657073]}}, {"type": "Feature", "properties": {"id": 15, "nombre": "INSTITUTO T\u00c9CNICO SUPERIOR DEL CHIMBORAZO", "tipo": "educativo", "subtipo": "college", "barrio": "GENERAL LAVALLE", "capa_origen": "ESTABLECIMEINTO_EDUCATIVO"}, "geometry": {"type": "Point", "coordinates": [-78.654791, -1.667725]}}, {"type": "Feature", "properties": {"id": 16, "nombre": "UNIVERSIDAD NACIONAL DE CHIMBORAZO", "tipo": "educativo", "subtipo": "university", "barrio": "SAN RAFAEL", "capa_origen": "ESTABLECIMEINTO_EDUCATIVO"}, "geometry": {"type": "Point", "coordinates": [-78.641794, -1.679498]}}, {"type": "Feature", "properties": {"id": 17, "nombre": "UNIVERSIDAD REGIONAL AUTONOMA DE LOS ANDES", "tipo": "educativo", "subtipo": "university", "barrio": "CISNEROS DE TAPI", "capa_origen": "ESTABLECIMEINTO_EDUCATIVO"}, "geometry": {"type": "Point", "coordinates": [-78.669693, -1.649552]}}, {"type": "Feature", "properties": {"id": 18, "nombre": "Liceo Iberoamericano", "tipo": "educativo", "subtipo": "school", "barrio": "LOMA DE QUITO", "capa_origen": "ESTABLECIMEINTO_EDUCATIVO"}, "geometry": {"type": "Point", "coordinates": [-78.653795, -1.667337]}}, {"type": "Feature", "properties": {"id": 19, "nombre": "Colegio John F. Kennedy", "tipo": "educativo", "subtipo": "school", "barrio": "LA PANADERIA", "capa_origen": "ESTABLECIMEINTO_EDUCATIVO"}, "geometry": {"type": "Point", "coordinates": [-78.648957, -1.669156]}}, {"type": "Feature", "properties": {"id": 20, "nombre": "Happy Land Riobamba", "tipo": "educativo", "subtipo": "kindergarten", "barrio": "SAN PEDRO DE LAS ABRAS", "capa_origen": "ESTABLECIMEINTO_EDUCATIVO"}, "geometry": {"type": "Point", "coordinates": [-78.646, -1.654074]}}, {"type": "Feature", "properties": {"id": 21, "nombre": "Colegio Adolfo- Kolping", "tipo": "educativo", "subtipo": "school", "barrio": "SANTA ROSA", "capa_origen": "ESTABLECIMEINTO_EDUCATIVO"}, "geometry": {"type": "Point", "coordinates": [-78.675514, -1.693828]}}, {"type": "Feature", "properties": {"id": 22, "nombre": "ANETA Riobamba", "tipo": "educativo", "subtipo": "school", "barrio": "SAN ALFONSO", "capa_origen": "ESTABLECIMEINTO_EDUCATIVO"}, "geometry": {"type": "Point", "coordinates": [-78.645208, -1.66872]}}, {"type": "Feature", "properties": {"id": 23, "nombre": "Cachamsi", "tipo": "educativo", "subtipo": "school", "barrio": "EL TEJAR", "capa_origen": "ESTABLECIMEINTO_EDUCATIVO"}, "geometry": {"type": "Point", "coordinates": [-78.651905, -1.676736]}}, {"type": "Feature", "properties": {"id": 24, "nombre": "UNIVERSIDAD NACIONAL DE CHIMBORAZO-DOLOROSA", "tipo": "educativo", "subtipo": "university", "barrio": "SAN RAFAEL", "capa_origen": "ESTABLECIMEINTO_EDUCATIVO"}, "geometry": {"type": "Point", "coordinates": [-78.640826, -1.680989]}}, {"type": "Feature", "properties": {"id": 25, "nombre": "Sergio quirola", "tipo": "educativo", "subtipo": "school", "barrio": "LA JOYA", "capa_origen": "ESTABLECIMEINTO_EDUCATIVO"}, "geometry": {"type": "Point", "coordinates": [-78.647974, -1.679705]}}, {"type": "Feature", "properties": {"id": 26, "nombre": "Formaci\u00f3n Cultural Alianza Juvenil", "tipo": "educativo", "subtipo": "driving_school", "barrio": "COMPLEJO LA PANADERIA", "capa_origen": "ESTABLECIMEINTO_EDUCATIVO"}, "geometry": {"type": "Point", "coordinates": [-78.641619, -1.661782]}}, {"type": "Feature", "properties": {"id": 27, "nombre": "Ballet de Proyecci\u00f3n Kapak Urku", "tipo": "educativo", "subtipo": "school", "barrio": "SAN JUAN", "capa_origen": "ESTABLECIMEINTO_EDUCATIVO"}, "geometry": {"type": "Point", "coordinates": [-78.659073, -1.662074]}}, {"type": "Feature", "properties": {"id": 28, "nombre": "Eureka", "tipo": "educativo", "subtipo": "kindergarten", "barrio": "BONILLA ABARCA", "capa_origen": "ESTABLECIMEINTO_EDUCATIVO"}, "geometry": {"type": "Point", "coordinates": [-78.658745, -1.671363]}}, {"type": "Feature", "properties": {"id": 29, "nombre": "Escuela Magdalena Davalos", "tipo": "educativo", "subtipo": "school", "barrio": "SAN FRANCISCO", "capa_origen": "ESTABLECIMEINTO_EDUCATIVO"}, "geometry": {"type": "Point", "coordinates": [-78.64636, -1.675103]}}, {"type": "Feature", "properties": {"id": 30, "nombre": "United Educativa Once de Noviembre", "tipo": "educativo", "subtipo": "school", "barrio": "LA MERCED", "capa_origen": "ESTABLECIMEINTO_EDUCATIVO"}, "geometry": {"type": "Point", "coordinates": [-78.651332, -1.67484]}}, {"type": "Feature", "properties": {"id": 31, "nombre": "UESTAR", "tipo": "educativo", "subtipo": "college", "barrio": "VICTORIA", "capa_origen": "ESTABLECIMEINTO_EDUCATIVO"}, "geometry": {"type": "Point", "coordinates": [-78.656212, -1.66029]}}, {"type": "Feature", "properties": {"id": 32, "nombre": "Vigostky", "tipo": "educativo", "subtipo": "school", "barrio": "LA JOYA", "capa_origen": "ESTABLECIMEINTO_EDUCATIVO"}, "geometry": {"type": "Point", "coordinates": [-78.649231, -1.677537]}}, {"type": "Feature", "properties": {"id": 33, "nombre": "Despertar", "tipo": "educativo", "subtipo": "school", "barrio": "SAN PEDRO DE LAS ABRAS", "capa_origen": "ESTABLECIMEINTO_EDUCATIVO"}, "geometry": {"type": "Point", "coordinates": [-78.64337, -1.645459]}}, {"type": "Feature", "properties": {"id": 34, "nombre": "ACIBAG", "tipo": "educativo", "subtipo": "school", "barrio": "LAS DALIAS", "capa_origen": "ESTABLECIMEINTO_EDUCATIVO"}, "geometry": {"type": "Point", "coordinates": [-78.657345, -1.658235]}}, {"type": "Feature", "properties": {"id": 35, "nombre": "Parada Av. Canonigo Ramos y 11 de Noviembre", "tipo": "educativo", "subtipo": null, "barrio": "LOURDES ALTO", "capa_origen": "ESTABLECIMEINTO_EDUCATIVO"}, "geometry": {"type": "Point", "coordinates": [-78.670399, -1.656317]}}, {"type": "Feature", "properties": {"id": 36, "nombre": "Pensionado Olivo", "tipo": "educativo", "subtipo": "school", "barrio": null, "capa_origen": "ESTABLECIMEINTO_EDUCATIVO"}, "geometry": {"type": "Point", "coordinates": [-78.656363, -1.685477]}}, {"type": "Feature", "properties": {"id": 37, "nombre": "Jardin Alfredo Costales", "tipo": "educativo", "subtipo": "school", "barrio": "BELLAVISTA", "capa_origen": "ESTABLECIMEINTO_EDUCATIVO"}, "geometry": {"type": "Point", "coordinates": [-78.639641, -1.675095]}}, {"type": "Feature", "properties": {"id": 38, "nombre": "", "tipo": "educativo", "subtipo": "kindergarten", "barrio": "CALZADO LIBRE", "capa_origen": "ESTABLECIMEINTO_EDUCATIVO"}, "geometry": {"type": "Point", "coordinates": [-78.647904, -1.661452]}}, {"type": "Feature", "properties": {"id": 39, "nombre": "Campus Unidad Educativa Vigotsky", "tipo": "educativo", "subtipo": "college", "barrio": null, "capa_origen": "ESTABLECIMEINTO_EDUCATIVO"}, "geometry": {"type": "Point", "coordinates": [-78.654793, -1.686665]}}, {"type": "Feature", "properties": {"id": 40, "nombre": "Fe y Alegr\u00eda", "tipo": "educativo", "subtipo": "school", "barrio": "LA DOLOROSA", "capa_origen": "ESTABLECIMEINTO_EDUCATIVO"}, "geometry": {"type": "Point", "coordinates": [-78.643192, -1.680687]}}, {"type": "Feature", "properties": {"id": 41, "nombre": "Colegio Nacional Pedro Vicente Maldonado", "tipo": "educativo", "subtipo": "school", "barrio": "LA CONCEPCION", "capa_origen": "ESTABLECIMEINTO_EDUCATIVO"}, "geometry": {"type": "Point", "coordinates": [-78.649971, -1.671272]}}, {"type": "Feature", "properties": {"id": 42, "nombre": "I.T.S. Carlos Cisneros", "tipo": "educativo", "subtipo": "school", "barrio": "BELLAVISTA", "capa_origen": "ESTABLECIMEINTO_EDUCATIVO"}, "geometry": {"type": "Point", "coordinates": [-78.634962, -1.676072]}}, {"type": "Feature", "properties": {"id": 43, "nombre": "Colegio Fernando Daquilema", "tipo": "educativo", "subtipo": "school", "barrio": "LOTIZACION DAQUILEMA", "capa_origen": "ESTABLECIMEINTO_EDUCATIVO"}, "geometry": {"type": "Point", "coordinates": [-78.633997, -1.687643]}}, {"type": "Feature", "properties": {"id": 44, "nombre": "Colegio Edmundo Chiriboga", "tipo": "educativo", "subtipo": "college", "barrio": "COOPERATIVA LIBERACION POPULAR", "capa_origen": "ESTABLECIMEINTO_EDUCATIVO"}, "geometry": {"type": "Point", "coordinates": [-78.658931, -1.678248]}}, {"type": "Feature", "properties": {"id": 45, "nombre": "Colegio Combatientes de Tapi", "tipo": "educativo", "subtipo": "college", "barrio": null, "capa_origen": "ESTABLECIMEINTO_EDUCATIVO"}, "geometry": {"type": "Point", "coordinates": [-78.650164, -1.662035]}}, {"type": "Feature", "properties": {"id": 46, "nombre": "Colegio Mar\u00eda Auxiliadora", "tipo": "educativo", "subtipo": "college", "barrio": "LA MERCED", "capa_origen": "ESTABLECIMEINTO_EDUCATIVO"}, "geometry": {"type": "Point", "coordinates": [-78.649166, -1.674969]}}, {"type": "Feature", "properties": {"id": 47, "nombre": "Unidad Educativa \"San Felipe Neri\"", "tipo": "educativo", "subtipo": "college", "barrio": "SAN FRANCISCO", "capa_origen": "ESTABLECIMEINTO_EDUCATIVO"}, "geometry": {"type": "Point", "coordinates": [-78.645819, -1.673894]}}, {"type": "Feature", "properties": {"id": 48, "nombre": "San Vicente de Pa\u00fal", "tipo": "educativo", "subtipo": "school", "barrio": "LA MERCED", "capa_origen": "ESTABLECIMEINTO_EDUCATIVO"}, "geometry": {"type": "Point", "coordinates": [-78.650894, -1.675921]}}, {"type": "Feature", "properties": {"id": 49, "nombre": "Colegio La Salle", "tipo": "educativo", "subtipo": "school", "barrio": "LA SALLE", "capa_origen": "ESTABLECIMEINTO_EDUCATIVO"}, "geometry": {"type": "Point", "coordinates": [-78.646548, -1.667795]}}, {"type": "Feature", "properties": {"id": 50, "nombre": "Center Drive", "tipo": "educativo", "subtipo": "driving_school", "barrio": "SAN LUIS", "capa_origen": "ESTABLECIMEINTO_EDUCATIVO"}, "geometry": {"type": "Point", "coordinates": [-78.663639, -1.670517]}}, {"type": "Feature", "properties": {"id": 51, "nombre": "Escuela Superior Polit\u00e9cnica de Chimborazo", "tipo": "educativo", "subtipo": "university", "barrio": "ESPOCH", "capa_origen": "ESTABLECIMEINTO_EDUCATIVO"}, "geometry": {"type": "Point", "coordinates": [-78.679765, -1.654245]}}, {"type": "Feature", "properties": {"id": 52, "nombre": "Instituto Tecnol\u00f3gico Superior Isabel de God\u00edn", "tipo": "educativo", "subtipo": "college", "barrio": "SANTA FAZ", "capa_origen": "ESTABLECIMEINTO_EDUCATIVO"}, "geometry": {"type": "Point", "coordinates": [-78.651142, -1.680253]}}, {"type": "Feature", "properties": {"id": 53, "nombre": "Universidad Nacional de Chimborazo \"UNACH\"", "tipo": "educativo", "subtipo": "university", "barrio": "11 DE NOVIEMBRE", "capa_origen": "ESTABLECIMEINTO_EDUCATIVO"}, "geometry": {"type": "Point", "coordinates": [-78.642339, -1.652821]}}, {"type": "Feature", "properties": {"id": 54, "nombre": "Unidad Educativa Riobamba", "tipo": "educativo", "subtipo": "school", "barrio": "SANTA FAZ", "capa_origen": "ESTABLECIMEINTO_EDUCATIVO"}, "geometry": {"type": "Point", "coordinates": [-78.663469, -1.660144]}}, {"type": "Feature", "properties": {"id": 55, "nombre": "Escuela Nicanor Larrea Leon", "tipo": "educativo", "subtipo": "school", "barrio": "MUNICIPAL", "capa_origen": "ESTABLECIMEINTO_EDUCATIVO"}, "geometry": {"type": "Point", "coordinates": [-78.656914, -1.667332]}}, {"type": "Feature", "properties": {"id": 56, "nombre": "Unidad Educativa Salesiana \"Santo Tom\u00e1s Ap\u00f3stol\"", "tipo": "educativo", "subtipo": "school", "barrio": "VICTORIA", "capa_origen": "ESTABLECIMEINTO_EDUCATIVO"}, "geometry": {"type": "Point", "coordinates": [-78.65475, -1.660089]}}, {"type": "Feature", "properties": {"id": 57, "nombre": "Unidad Educativa Mercedes de Jesus Molina", "tipo": "educativo", "subtipo": "school", "barrio": null, "capa_origen": "ESTABLECIMEINTO_EDUCATIVO"}, "geometry": {"type": "Point", "coordinates": [-78.644663, -1.688452]}}, {"type": "Feature", "properties": {"id": 58, "nombre": "Universidad San Francisco", "tipo": "educativo", "subtipo": "university", "barrio": "LA MERCED", "capa_origen": "ESTABLECIMEINTO_EDUCATIVO"}, "geometry": {"type": "Point", "coordinates": [-78.649719, -1.67451]}}, {"type": "Feature", "properties": {"id": 59, "nombre": "IPREX Centro, Riobamba", "tipo": "educativo", "subtipo": "college", "barrio": "LOMA DE QUITO", "capa_origen": "ESTABLECIMEINTO_EDUCATIVO"}, "geometry": {"type": "Point", "coordinates": [-78.652362, -1.668153]}}, {"type": "Feature", "properties": {"id": 60, "nombre": "Escuela Primera Constituyente", "tipo": "educativo", "subtipo": "school", "barrio": "SAN JUAN", "capa_origen": "ESTABLECIMEINTO_EDUCATIVO"}, "geometry": {"type": "Point", "coordinates": [-78.659565, -1.661594]}}, {"type": "Feature", "properties": {"id": 61, "nombre": "Jardin General Lavalle", "tipo": "educativo", "subtipo": "kindergarten", "barrio": "SAN JOSE DE TAPI", "capa_origen": "ESTABLECIMEINTO_EDUCATIVO"}, "geometry": {"type": "Point", "coordinates": [-78.665878, -1.660286]}}, {"type": "Feature", "properties": {"id": 62, "nombre": "Unidad Educativa \"Jefferson\"", "tipo": "educativo", "subtipo": "school", "barrio": null, "capa_origen": "ESTABLECIMEINTO_EDUCATIVO"}, "geometry": {"type": "Point", "coordinates": [-78.670317, -1.668526]}}, {"type": "Feature", "properties": {"id": 63, "nombre": "Colegio Nuestra Se\u00f1ora de Fatima", "tipo": "educativo", "subtipo": "school", "barrio": "LA ESTACION", "capa_origen": "ESTABLECIMEINTO_EDUCATIVO"}, "geometry": {"type": "Point", "coordinates": [-78.652566, -1.669926]}}, {"type": "Feature", "properties": {"id": 64, "nombre": "Colegio Nuestra Se\u00f1ora de Fatima", "tipo": "educativo", "subtipo": "school", "barrio": "LA ESTACION", "capa_origen": "ESTABLECIMEINTO_EDUCATIVO"}, "geometry": {"type": "Point", "coordinates": [-78.652759, -1.669686]}}, {"type": "Feature", "properties": {"id": 65, "nombre": "Escuela 21 de Abril", "tipo": "educativo", "subtipo": "school", "barrio": "FERROVIARIO", "capa_origen": "ESTABLECIMEINTO_EDUCATIVO"}, "geometry": {"type": "Point", "coordinates": [-78.658009, -1.671005]}}, {"type": "Feature", "properties": {"id": 66, "nombre": "Escuela Santa Marianita de Jes\u00fas", "tipo": "educativo", "subtipo": "school", "barrio": "EL ROSAL", "capa_origen": "ESTABLECIMEINTO_EDUCATIVO"}, "geometry": {"type": "Point", "coordinates": [-78.642918, -1.690341]}}, {"type": "Feature", "properties": {"id": 67, "nombre": "Escuela F\u00e9 y Alegr\u00eda", "tipo": "educativo", "subtipo": "school", "barrio": "LA DOLOROSA", "capa_origen": "ESTABLECIMEINTO_EDUCATIVO"}, "geometry": {"type": "Point", "coordinates": [-78.643257, -1.680154]}}, {"type": "Feature", "properties": {"id": 68, "nombre": "Unidad Educativa Especializada \"Carlos Garbay\"", "tipo": "educativo", "subtipo": "school", "barrio": "11 DE NOVIEMBRE", "capa_origen": "ESTABLECIMEINTO_EDUCATIVO"}, "geometry": {"type": "Point", "coordinates": [-78.64234, -1.654784]}}, {"type": "Feature", "properties": {"id": 69, "nombre": "Unidad Educativa Camilo Gallegos Toledo", "tipo": "educativo", "subtipo": "school", "barrio": "LOURDES ALTO", "capa_origen": "ESTABLECIMEINTO_EDUCATIVO"}, "geometry": {"type": "Point", "coordinates": [-78.67059, -1.656761]}}, {"type": "Feature", "properties": {"id": 70, "nombre": "Escuela Arnaldo Merino Mu\u00f1oz", "tipo": "educativo", "subtipo": "school", "barrio": "SAN JOSE DE TAPI", "capa_origen": "ESTABLECIMEINTO_EDUCATIVO"}, "geometry": {"type": "Point", "coordinates": [-78.665101, -1.659204]}}, {"type": "Feature", "properties": {"id": 71, "nombre": "I.T.S. Vicente Anda Aguirre", "tipo": "educativo", "subtipo": "school", "barrio": "SAN JOSE DE TAPI", "capa_origen": "ESTABLECIMEINTO_EDUCATIVO"}, "geometry": {"type": "Point", "coordinates": [-78.664849, -1.659581]}}, {"type": "Feature", "properties": {"id": 72, "nombre": "Dolores Ventimilla de Galindo", "tipo": "educativo", "subtipo": "kindergarten", "barrio": "JUAN DE VELAZCO", "capa_origen": "ESTABLECIMEINTO_EDUCATIVO"}, "geometry": {"type": "Point", "coordinates": [-78.63809, -1.669669]}}, {"type": "Feature", "properties": {"id": 73, "nombre": "Colegio Amelia Gallegos", "tipo": "educativo", "subtipo": "school", "barrio": "LA DOLOROSA", "capa_origen": "ESTABLECIMEINTO_EDUCATIVO"}, "geometry": {"type": "Point", "coordinates": [-78.644799, -1.680727]}}, {"type": "Feature", "properties": {"id": 74, "nombre": "Pedro Jos\u00e9 Artreta", "tipo": "educativo", "subtipo": "kindergarten", "barrio": "PUCARA", "capa_origen": "ESTABLECIMEINTO_EDUCATIVO"}, "geometry": {"type": "Point", "coordinates": [-78.637134, -1.680442]}}, {"type": "Feature", "properties": {"id": 75, "nombre": "Unidad Educativa a Distancia de Chimborazo", "tipo": "educativo", "subtipo": "school", "barrio": "SAN JOSE DE TAPI", "capa_origen": "ESTABLECIMEINTO_EDUCATIVO"}, "geometry": {"type": "Point", "coordinates": [-78.666679, -1.660972]}}, {"type": "Feature", "properties": {"id": 76, "nombre": "Unidad Educativa Jos\u00e9 Mar\u00eda Rom\u00e1n", "tipo": "educativo", "subtipo": "school", "barrio": "DIDONATO", "capa_origen": "ESTABLECIMEINTO_EDUCATIVO"}, "geometry": {"type": "Point", "coordinates": [-78.653124, -1.661334]}}, {"type": "Feature", "properties": {"id": 77, "nombre": "Escuela Martiniano Guerrero Freire", "tipo": "educativo", "subtipo": "school", "barrio": "LOMA DE QUITO", "capa_origen": "ESTABLECIMEINTO_EDUCATIVO"}, "geometry": {"type": "Point", "coordinates": [-78.653331, -1.665104]}}, {"type": "Feature", "properties": {"id": 78, "nombre": "Unidad Educativa Particular", "tipo": "educativo", "subtipo": "school", "barrio": "LOS ALAMOS I", "capa_origen": "ESTABLECIMEINTO_EDUCATIVO"}, "geometry": {"type": "Point", "coordinates": [-78.665604, -1.656882]}}, {"type": "Feature", "properties": {"id": 79, "nombre": "Unidad Educativa Especialzada: Sordos De Chinodrazo", "tipo": "educativo", "subtipo": "school", "barrio": "VILLA MARIA", "capa_origen": "ESTABLECIMEINTO_EDUCATIVO"}, "geometry": {"type": "Point", "coordinates": [-78.642348, -1.674685]}}, {"type": "Feature", "properties": {"id": 80, "nombre": "Unidad Educativa Yaruquies", "tipo": "educativo", "subtipo": "school", "barrio": "CENTRAL", "capa_origen": "ESTABLECIMEINTO_EDUCATIVO"}, "geometry": {"type": "Point", "coordinates": [-78.674848, -1.689191]}}, {"type": "Feature", "properties": {"id": 81, "nombre": "UNIDAD EDUCATIVA AMELIA GALLEGOS DIAZ", "tipo": "educativo", "subtipo": "school", "barrio": "EL TEJAR", "capa_origen": "ESTABLECIMEINTO_EDUCATIVO"}, "geometry": {"type": "Point", "coordinates": [-78.650518, -1.676635]}}, {"type": "Feature", "properties": {"id": 82, "nombre": "Unidad Educativa Dr. Leonidas Garcia Ortiz", "tipo": "educativo", "subtipo": "school", "barrio": "LAS CARMELITAS", "capa_origen": "ESTABLECIMEINTO_EDUCATIVO"}, "geometry": {"type": "Point", "coordinates": [-78.656194, -1.676522]}}, {"type": "Feature", "properties": {"id": 84, "nombre": "Unidad Educativa Especializada ''Carlos Garbay''", "tipo": "educativo", "subtipo": "school", "barrio": "11 DE NOVIEMBRE", "capa_origen": "ESTABLECIMEINTO_EDUCATIVO"}, "geometry": {"type": "Point", "coordinates": [-78.642706, -1.656326]}}, {"type": "Feature", "properties": {"id": 85, "nombre": "Escuela Dr. German Abdo Touma", "tipo": "educativo", "subtipo": "school", "barrio": "JOSE MANCERO", "capa_origen": "ESTABLECIMEINTO_EDUCATIVO"}, "geometry": {"type": "Point", "coordinates": [-78.641221, -1.660668]}}, {"type": "Feature", "properties": {"id": 86, "nombre": "", "tipo": "educativo", "subtipo": "school", "barrio": null, "capa_origen": "ESTABLECIMEINTO_EDUCATIVO"}, "geometry": {"type": "Point", "coordinates": [-78.660937, -1.65468]}}, {"type": "Feature", "properties": {"id": 87, "nombre": "Escuela de Educaci\u00f3n B\u00e1sica San Felipe Neri", "tipo": "educativo", "subtipo": "school", "barrio": "LOURDES ALTO", "capa_origen": "ESTABLECIMEINTO_EDUCATIVO"}, "geometry": {"type": "Point", "coordinates": [-78.669329, -1.661615]}}, {"type": "Feature", "properties": {"id": 88, "nombre": "Colegio Pedro Vicente Maldonado", "tipo": "educativo", "subtipo": "college", "barrio": "SAN ANTONIO DEL AEROPUERTO", "capa_origen": "ESTABLECIMEINTO_EDUCATIVO"}, "geometry": {"type": "Point", "coordinates": [-78.647954, -1.65757]}}, {"type": "Feature", "properties": {"id": 89, "nombre": "INNFA", "tipo": "educativo", "subtipo": "school", "barrio": "11 DE NOVIEMBRE", "capa_origen": "ESTABLECIMEINTO_EDUCATIVO"}, "geometry": {"type": "Point", "coordinates": [-78.644598, -1.655708]}}, {"type": "Feature", "properties": {"id": 90, "nombre": "Escuela 5 de Junio", "tipo": "educativo", "subtipo": "school", "barrio": "SAN ALFONSO", "capa_origen": "ESTABLECIMEINTO_EDUCATIVO"}, "geometry": {"type": "Point", "coordinates": [-78.646418, -1.665967]}}, {"type": "Feature", "properties": {"id": 91, "nombre": "Jardin de Infantes Luis Umberto Sancho", "tipo": "educativo", "subtipo": "kindergarten", "barrio": "SAN ALFONSO", "capa_origen": "ESTABLECIMEINTO_EDUCATIVO"}, "geometry": {"type": "Point", "coordinates": [-78.645671, -1.666212]}}, {"type": "Feature", "properties": {"id": 92, "nombre": "Colegio Miguel Angel Le\u00f3n", "tipo": "educativo", "subtipo": "school", "barrio": "SAN ALFONSO", "capa_origen": "ESTABLECIMEINTO_EDUCATIVO"}, "geometry": {"type": "Point", "coordinates": [-78.645073, -1.665714]}}, {"type": "Feature", "properties": {"id": 93, "nombre": "Escuela de Educaci\u00f3n B\u00e1sica Juan Bernado de Leon", "tipo": "educativo", "subtipo": "school", "barrio": "VILLA MARIA", "capa_origen": "ESTABLECIMEINTO_EDUCATIVO"}, "geometry": {"type": "Point", "coordinates": [-78.640373, -1.676193]}}, {"type": "Feature", "properties": {"id": 94, "nombre": "Centro de Educacion Inicial Alfredo Costales Cevallos", "tipo": "educativo", "subtipo": "school", "barrio": "BELLAVISTA", "capa_origen": "ESTABLECIMEINTO_EDUCATIVO"}, "geometry": {"type": "Point", "coordinates": [-78.640586, -1.675502]}}, {"type": "Feature", "properties": {"id": 95, "nombre": "Unidad Educativa Capitan Edmundo Chiriboga", "tipo": "educativo", "subtipo": "school", "barrio": "LA PRIMAVERA", "capa_origen": "ESTABLECIMEINTO_EDUCATIVO"}, "geometry": {"type": "Point", "coordinates": [-78.66215, -1.677566]}}, {"type": "Feature", "properties": {"id": 96, "nombre": "Centro de Educacion Inicial L Primavera", "tipo": "educativo", "subtipo": "school", "barrio": "LA PRIMAVERA", "capa_origen": "ESTABLECIMEINTO_EDUCATIVO"}, "geometry": {"type": "Point", "coordinates": [-78.662636, -1.677439]}}, {"type": "Feature", "properties": {"id": 97, "nombre": "Escuela de Educaci\u00f3n B\u00e1sica Garcia Moreno", "tipo": "educativo", "subtipo": "school", "barrio": null, "capa_origen": "ESTABLECIMEINTO_EDUCATIVO"}, "geometry": {"type": "Point", "coordinates": [-78.671148, -1.67492]}}, {"type": "Feature", "properties": {"id": 98, "nombre": "Centro de Educacion Inicial Eloy Alfaro", "tipo": "educativo", "subtipo": "school", "barrio": "SAN LUIS", "capa_origen": "ESTABLECIMEINTO_EDUCATIVO"}, "geometry": {"type": "Point", "coordinates": [-78.662838, -1.668915]}}, {"type": "Feature", "properties": {"id": 99, "nombre": "Unidad Educativa Intercultural Bilingue Monse\u00f1or Leonidas Proa\u00f1o", "tipo": "educativo", "subtipo": "school", "barrio": "CORAZON DE LA PATRIA", "capa_origen": "ESTABLECIMEINTO_EDUCATIVO"}, "geometry": {"type": "Point", "coordinates": [-78.682681, -1.658863]}}, {"type": "Feature", "properties": {"id": 100, "nombre": "Escuela de Educaci\u00f3n B\u00e1sica Gral Juan Lavalle", "tipo": "educativo", "subtipo": "school", "barrio": "SAN JOSE DE TAPI", "capa_origen": "ESTABLECIMEINTO_EDUCATIVO"}, "geometry": {"type": "Point", "coordinates": [-78.67355, -1.646274]}}, {"type": "Feature", "properties": {"id": 102, "nombre": "Centro de Educacion Inicial Jose Ernesto Vallejo", "tipo": "educativo", "subtipo": "school", "barrio": "COMPLEJO LA PANADERIA", "capa_origen": "ESTABLECIMEINTO_EDUCATIVO"}, "geometry": {"type": "Point", "coordinates": [-78.643356, -1.661437]}}, {"type": "Feature", "properties": {"id": 103, "nombre": "TIPI TAP BABY BALLET", "tipo": "educativo", "subtipo": "dancing_school", "barrio": "LA MERCED", "capa_origen": "ESTABLECIMEINTO_EDUCATIVO"}, "geometry": {"type": "Point", "coordinates": [-78.651399, -1.675824]}}, {"type": "Feature", "properties": {"id": 104, "nombre": "iPREX Norte", "tipo": "educativo", "subtipo": "college", "barrio": "EL RETAMAL", "capa_origen": "ESTABLECIMEINTO_EDUCATIVO"}, "geometry": {"type": "Point", "coordinates": [-78.673624, -1.653298]}}, {"type": "Feature", "properties": {"id": 105, "nombre": "Centro Educativo Particular \"De Las Americas\" -CEPLA-", "tipo": "educativo", "subtipo": "school", "barrio": null, "capa_origen": "ESTABLECIMEINTO_EDUCATIVO"}, "geometry": {"type": "Point", "coordinates": [-78.684572, -1.637837]}}, {"type": "Feature", "properties": {"id": 1, "nombre": "Correos del Ecuador", "tipo": "administrativo", "subtipo": null, "barrio": "LA MERCED", "capa_origen": "ESTABLECIMIENTO_ADMINISTRATIVO"}, "geometry": {"type": "Point", "coordinates": [-78.649118, -1.673393]}}, {"type": "Feature", "properties": {"id": 2, "nombre": "Municipio Riobamba", "tipo": "administrativo", "subtipo": null, "barrio": "SAN ALFONSO", "capa_origen": "ESTABLECIMIENTO_ADMINISTRATIVO"}, "geometry": {"type": "Point", "coordinates": [-78.647767, -1.672996]}}, {"type": "Feature", "properties": {"id": 3, "nombre": "Pai Ciudadela Cemento Chimborazo", "tipo": "administrativo", "subtipo": null, "barrio": "CEMENTO CHIMBORAZO", "capa_origen": "ESTABLECIMIENTO_ADMINISTRATIVO"}, "geometry": {"type": "Point", "coordinates": [-78.66719, -1.654501]}}, {"type": "Feature", "properties": {"id": 4, "nombre": "Bomberos", "tipo": "administrativo", "subtipo": null, "barrio": "SANTA ROSA", "capa_origen": "ESTABLECIMIENTO_ADMINISTRATIVO"}, "geometry": {"type": "Point", "coordinates": [-78.653643, -1.673397]}}, {"type": "Feature", "properties": {"id": 5, "nombre": "Cuerpo de Bomberos", "tipo": "administrativo", "subtipo": null, "barrio": "SANTA MARIANITA", "capa_origen": "ESTABLECIMIENTO_ADMINISTRATIVO"}, "geometry": {"type": "Point", "coordinates": [-78.644379, -1.673575]}}, {"type": "Feature", "properties": {"id": 6, "nombre": "Policia Mercado Oriental", "tipo": "administrativo", "subtipo": null, "barrio": "SAN ALFONSO", "capa_origen": "ESTABLECIMIENTO_ADMINISTRATIVO"}, "geometry": {"type": "Point", "coordinates": [-78.644048, -1.666435]}}, {"type": "Feature", "properties": {"id": 7, "nombre": "UNIDAD PENAL RIOBAMBA", "tipo": "administrativo", "subtipo": null, "barrio": "PARQUE INDUSTRIAL", "capa_origen": "ESTABLECIMIENTO_ADMINISTRATIVO"}, "geometry": {"type": "Point", "coordinates": [-78.628733, -1.693655]}}, {"type": "Feature", "properties": {"id": 8, "nombre": "CONSEJO DE LA JUDICATURA DE CHIMBORAZO", "tipo": "administrativo", "subtipo": null, "barrio": "LA ESTACION", "capa_origen": "ESTABLECIMIENTO_ADMINISTRATIVO"}, "geometry": {"type": "Point", "coordinates": [-78.651474, -1.670539]}}, {"type": "Feature", "properties": {"id": 9, "nombre": "Unidad Judicial Civil Riobamba", "tipo": "administrativo", "subtipo": null, "barrio": "LA PANADERIA", "capa_origen": "ESTABLECIMIENTO_ADMINISTRATIVO"}, "geometry": {"type": "Point", "coordinates": [-78.652299, -1.668831]}}, {"type": "Feature", "properties": {"id": 10, "nombre": "Sindicato de choferes profesionales de Chimborazo", "tipo": "administrativo", "subtipo": null, "barrio": "SAN FRANCISCO", "capa_origen": "ESTABLECIMIENTO_ADMINISTRATIVO"}, "geometry": {"type": "Point", "coordinates": [-78.647639, -1.67389]}}, {"type": "Feature", "properties": {"id": 11, "nombre": "Direcci\u00f3n Distrital De Educaci\u00f3n 06D01 Chambo - Riobamba", "tipo": "administrativo", "subtipo": null, "barrio": "ROSA MARIA", "capa_origen": "ESTABLECIMIENTO_ADMINISTRATIVO"}, "geometry": {"type": "Point", "coordinates": [-78.660196, -1.66506]}}, {"type": "Feature", "properties": {"id": 12, "nombre": "DIRECCI\u00d3N DISTRITAL 06D01 CHAMBO RIOBAMBA - CHIMBORAZO MTOP RIOBAMBA, PANAMERICANA SUR Y AVENIDA LEONIDAS PROA\u00d1O", "tipo": "administrativo", "subtipo": null, "barrio": "SAN MIGUEL DE TAPI", "capa_origen": "ESTABLECIMIENTO_ADMINISTRATIVO"}, "geometry": {"type": "Point", "coordinates": [-78.674259, -1.644063]}}, {"type": "Feature", "properties": {"id": 13, "nombre": "Hogar de Ancianos San Sebasti\u00e1n", "tipo": "administrativo", "subtipo": null, "barrio": "LOS SHYRIS", "capa_origen": "ESTABLECIMIENTO_ADMINISTRATIVO"}, "geometry": {"type": "Point", "coordinates": [-78.66138, -1.68125]}}, {"type": "Feature", "properties": {"id": 14, "nombre": "Registro Civil", "tipo": "administrativo", "subtipo": null, "barrio": "LA ESTACION", "capa_origen": "ESTABLECIMIENTO_ADMINISTRATIVO"}, "geometry": {"type": "Point", "coordinates": [-78.653665, -1.668851]}}, {"type": "Feature", "properties": {"id": 15, "nombre": "Direccion de Educacion", "tipo": "administrativo", "subtipo": null, "barrio": "SAN JOSE DE TAPI", "capa_origen": "ESTABLECIMIENTO_ADMINISTRATIVO"}, "geometry": {"type": "Point", "coordinates": [-78.665522, -1.660609]}}, {"type": "Feature", "properties": {"id": 16, "nombre": "C\u00e1rcel de Riobamba", "tipo": "administrativo", "subtipo": null, "barrio": "LA CARCEL", "capa_origen": "ESTABLECIMIENTO_ADMINISTRATIVO"}, "geometry": {"type": "Point", "coordinates": [-78.631424, -1.691405]}}, {"type": "Feature", "properties": {"id": 17, "nombre": "Auditorio Principal Dr. Romeo Rodriguez", "tipo": "administrativo", "subtipo": null, "barrio": "ESPOCH", "capa_origen": "ESTABLECIMIENTO_ADMINISTRATIVO"}, "geometry": {"type": "Point", "coordinates": [-78.677723, -1.660654]}}, {"type": "Feature", "properties": {"id": 18, "nombre": "Jefatura de Polic\u00eda No. 5", "tipo": "administrativo", "subtipo": null, "barrio": "PUCARA", "capa_origen": "ESTABLECIMIENTO_ADMINISTRATIVO"}, "geometry": {"type": "Point", "coordinates": [-78.639148, -1.679871]}}, {"type": "Feature", "properties": {"id": 19, "nombre": "UPC Pucar\u00e1", "tipo": "administrativo", "subtipo": null, "barrio": "LA POLITECNICA", "capa_origen": "ESTABLECIMIENTO_ADMINISTRATIVO"}, "geometry": {"type": "Point", "coordinates": [-78.640736, -1.684535]}}, {"type": "Feature", "properties": {"id": 20, "nombre": "Consejo Provincial Chimborazo", "tipo": "administrativo", "subtipo": null, "barrio": "LA ESTACION", "capa_origen": "ESTABLECIMIENTO_ADMINISTRATIVO"}, "geometry": {"type": "Point", "coordinates": [-78.652823, -1.668763]}}, {"type": "Feature", "properties": {"id": 21, "nombre": "Casa Barrial", "tipo": "administrativo", "subtipo": null, "barrio": "FAUSTO MOLINA", "capa_origen": "ESTABLECIMIENTO_ADMINISTRATIVO"}, "geometry": {"type": "Point", "coordinates": [-78.635511, -1.682714]}}, {"type": "Feature", "properties": {"id": 22, "nombre": "Casa Barrial", "tipo": "administrativo", "subtipo": null, "barrio": "SAN JOSE DE TAPI", "capa_origen": "ESTABLECIMIENTO_ADMINISTRATIVO"}, "geometry": {"type": "Point", "coordinates": [-78.664032, -1.657555]}}, {"type": "Feature", "properties": {"id": 23, "nombre": "UPC", "tipo": "administrativo", "subtipo": null, "barrio": "EL TERMINAL", "capa_origen": "ESTABLECIMIENTO_ADMINISTRATIVO"}, "geometry": {"type": "Point", "coordinates": [-78.662859, -1.662097]}}, {"type": "Feature", "properties": {"id": 24, "nombre": "APPOCH", "tipo": "administrativo", "subtipo": null, "barrio": "ESPOCH", "capa_origen": "ESTABLECIMIENTO_ADMINISTRATIVO"}, "geometry": {"type": "Point", "coordinates": [-78.677016, -1.660163]}}, {"type": "Feature", "properties": {"id": 25, "nombre": "FCP-AUDITORIO", "tipo": "administrativo", "subtipo": null, "barrio": "ESPOCH", "capa_origen": "ESTABLECIMIENTO_ADMINISTRATIVO"}, "geometry": {"type": "Point", "coordinates": [-78.680432, -1.655073]}}, {"type": "Feature", "properties": {"id": 26, "nombre": "FRN-Auditorio", "tipo": "administrativo", "subtipo": null, "barrio": "ESPOCH", "capa_origen": "ESTABLECIMIENTO_ADMINISTRATIVO"}, "geometry": {"type": "Point", "coordinates": [-78.683034, -1.65213]}}, {"type": "Feature", "properties": {"id": 27, "nombre": "", "tipo": "administrativo", "subtipo": null, "barrio": "ESPOCH", "capa_origen": "ESTABLECIMIENTO_ADMINISTRATIVO"}, "geometry": {"type": "Point", "coordinates": [-78.674858, -1.659362]}}, {"type": "Feature", "properties": {"id": 28, "nombre": "U.P.C. No. 8", "tipo": "administrativo", "subtipo": null, "barrio": "PUCARA", "capa_origen": "ESTABLECIMIENTO_ADMINISTRATIVO"}, "geometry": {"type": "Point", "coordinates": [-78.635206, -1.679721]}}, {"type": "Feature", "properties": {"id": 30, "nombre": "Auditorio Ciencias de la Salud UNACH", "tipo": "administrativo", "subtipo": null, "barrio": "11 DE NOVIEMBRE", "capa_origen": "ESTABLECIMIENTO_ADMINISTRATIVO"}, "geometry": {"type": "Point", "coordinates": [-78.64308, -1.652425]}}, {"type": "Feature", "properties": {"id": 31, "nombre": "", "tipo": "administrativo", "subtipo": null, "barrio": "11 DE NOVIEMBRE", "capa_origen": "ESTABLECIMIENTO_ADMINISTRATIVO"}, "geometry": {"type": "Point", "coordinates": [-78.640206, -1.657038]}}, {"type": "Feature", "properties": {"id": 32, "nombre": "", "tipo": "administrativo", "subtipo": null, "barrio": "LAGUNA SAN ANTONIO", "capa_origen": "ESTABLECIMIENTO_ADMINISTRATIVO"}, "geometry": {"type": "Point", "coordinates": [-78.639718, -1.649654]}}, {"type": "Feature", "properties": {"id": 33, "nombre": "UPC-LA PANADERIA", "tipo": "administrativo", "subtipo": null, "barrio": "COMPLEJO LA PANADERIA", "capa_origen": "ESTABLECIMIENTO_ADMINISTRATIVO"}, "geometry": {"type": "Point", "coordinates": [-78.643122, -1.660736]}}, {"type": "Feature", "properties": {"id": 34, "nombre": "Centro de Formaci\u00f3n Integral San Nicol\u00e1s", "tipo": "administrativo", "subtipo": null, "barrio": "COMPLEJO LA PANADERIA", "capa_origen": "ESTABLECIMIENTO_ADMINISTRATIVO"}, "geometry": {"type": "Point", "coordinates": [-78.644427, -1.661711]}}, {"type": "Feature", "properties": {"id": 35, "nombre": "UPC Camilo Ponce", "tipo": "administrativo", "subtipo": null, "barrio": "CAMILO PONCE", "capa_origen": "ESTABLECIMIENTO_ADMINISTRATIVO"}, "geometry": {"type": "Point", "coordinates": [-78.637641, -1.663718]}}, {"type": "Feature", "properties": {"id": 36, "nombre": "Centro  comunitario", "tipo": "administrativo", "subtipo": null, "barrio": "SAN RAFAEL", "capa_origen": "ESTABLECIMIENTO_ADMINISTRATIVO"}, "geometry": {"type": "Point", "coordinates": [-78.637444, -1.684212]}}, {"type": "Feature", "properties": {"id": 1, "nombre": "Teatro Leon", "tipo": "religioso / cultura", "subtipo": null, "barrio": "LA MERCED", "capa_origen": "ESTABLECIMIENTO_CULTURA"}, "geometry": {"type": "Point", "coordinates": [-78.650614, -1.671324]}}, {"type": "Feature", "properties": {"id": 2, "nombre": "La Perinola", "tipo": "religioso / cultura", "subtipo": null, "barrio": "VILLA MARIA", "capa_origen": "ESTABLECIMIENTO_CULTURA"}, "geometry": {"type": "Point", "coordinates": [-78.64464, -1.675296]}}, {"type": "Feature", "properties": {"id": 3, "nombre": "Novartes", "tipo": "religioso / cultura", "subtipo": null, "barrio": "CRUZADA SOCIAL", "capa_origen": "ESTABLECIMIENTO_CULTURA"}, "geometry": {"type": "Point", "coordinates": [-78.666093, -1.651018]}}, {"type": "Feature", "properties": {"id": 4, "nombre": "Novartes Centro Cultural", "tipo": "religioso / cultura", "subtipo": null, "barrio": "CISNEROS DE TAPI", "capa_origen": "ESTABLECIMIENTO_CULTURA"}, "geometry": {"type": "Point", "coordinates": [-78.669916, -1.646159]}}, {"type": "Feature", "properties": {"id": 5, "nombre": "Museo de Arte Religioso", "tipo": "religioso / cultura", "subtipo": null, "barrio": "LA PANADERIA", "capa_origen": "ESTABLECIMIENTO_CULTURA"}, "geometry": {"type": "Point", "coordinates": [-78.648575, -1.670263]}}, {"type": "Feature", "properties": {"id": 6, "nombre": "Casa Madre", "tipo": "religioso / cultura", "subtipo": null, "barrio": "SANTA MARIANITA", "capa_origen": "ESTABLECIMIENTO_CULTURA"}, "geometry": {"type": "Point", "coordinates": [-78.644669, -1.673253]}}, {"type": "Feature", "properties": {"id": 7, "nombre": "Museo de la Ciudad", "tipo": "religioso / cultura", "subtipo": null, "barrio": "LA MERCED", "capa_origen": "ESTABLECIMIENTO_CULTURA"}, "geometry": {"type": "Point", "coordinates": [-78.648789, -1.672984]}}, {"type": "Feature", "properties": {"id": 8, "nombre": "Museos Casa de la Cultura", "tipo": "religioso / cultura", "subtipo": null, "barrio": "LA ESTACION", "capa_origen": "ESTABLECIMIENTO_CULTURA"}, "geometry": {"type": "Point", "coordinates": [-78.65284, -1.670405]}}, {"type": "Feature", "properties": {"id": 9, "nombre": "Museo Banco Central", "tipo": "religioso / cultura", "subtipo": null, "barrio": "LA ESTACION", "capa_origen": "ESTABLECIMIENTO_CULTURA"}, "geometry": {"type": "Point", "coordinates": [-78.652564, -1.66874]}}, {"type": "Feature", "properties": {"id": 10, "nombre": "Museo Ciencias Naturales", "tipo": "religioso / cultura", "subtipo": null, "barrio": "LA CONCEPCION", "capa_origen": "ESTABLECIMIENTO_CULTURA"}, "geometry": {"type": "Point", "coordinates": [-78.649969, -1.671595]}}, {"type": "Feature", "properties": {"id": 11, "nombre": "Centro de arte y cultura", "tipo": "cultura", "subtipo": null, "barrio": "MUNICIPAL", "capa_origen": "ESTABLECIMIENTO_CULTURA"}, "geometry": {"type": "Point", "coordinates": [-78.657649, -1.666332]}}, {"type": "Feature", "properties": {"id": 1, "nombre": "Parque Guayaquil", "tipo": "recreativo", "subtipo": null, "barrio": "MUNICIPAL", "capa_origen": "ESTABLECIMIENTO_RECREATIVO"}, "geometry": {"type": "Point", "coordinates": [-78.659156, -1.667456]}}, {"type": "Feature", "properties": {"id": 2, "nombre": "Parque Maldonado", "tipo": "recreativo", "subtipo": null, "barrio": "SAN ALFONSO", "capa_origen": "ESTABLECIMIENTO_RECREATIVO"}, "geometry": {"type": "Point", "coordinates": [-78.648303, -1.672747]}}, {"type": "Feature", "properties": {"id": 3, "nombre": "Parque Sucre", "tipo": "recreativo", "subtipo": null, "barrio": "LA MERCED", "capa_origen": "ESTABLECIMIENTO_RECREATIVO"}, "geometry": {"type": "Point", "coordinates": [-78.650451, -1.671845]}}, {"type": "Feature", "properties": {"id": 4, "nombre": "Parque 21 de Abril", "tipo": "recreativo", "subtipo": null, "barrio": "LOMA DE QUITO", "capa_origen": "ESTABLECIMIENTO_RECREATIVO"}, "geometry": {"type": "Point", "coordinates": [-78.653346, -1.666222]}}, {"type": "Feature", "properties": {"id": 5, "nombre": "Parque La Libertad", "tipo": "recreativo", "subtipo": null, "barrio": "SAN FRANCISCO", "capa_origen": "ESTABLECIMIENTO_RECREATIVO"}, "geometry": {"type": "Point", "coordinates": [-78.646129, -1.67462]}}, {"type": "Feature", "properties": {"id": 6, "nombre": "Parque de la Madre", "tipo": "recreativo", "subtipo": null, "barrio": "BELLAVISTA", "capa_origen": "ESTABLECIMIENTO_RECREATIVO"}, "geometry": {"type": "Point", "coordinates": [-78.638728, -1.674242]}}, {"type": "Feature", "properties": {"id": 7, "nombre": "Plaza Barriga", "tipo": "recreativo", "subtipo": null, "barrio": "GENERAL LAVALLE", "capa_origen": "ESTABLECIMIENTO_RECREATIVO"}, "geometry": {"type": "Point", "coordinates": [-78.654941, -1.66696]}}, {"type": "Feature", "properties": {"id": 8, "nombre": "Parque del Estudiante", "tipo": "recreativo", "subtipo": null, "barrio": "ESPOCH", "capa_origen": "ESTABLECIMIENTO_RECREATIVO"}, "geometry": {"type": "Point", "coordinates": [-78.677667, -1.657305]}}, {"type": "Feature", "properties": {"id": 9, "nombre": "PARQUE", "tipo": "recreativo", "subtipo": null, "barrio": "COPERATIVA DEL MOP", "capa_origen": "ESTABLECIMIENTO_RECREATIVO"}, "geometry": {"type": "Point", "coordinates": [-78.682722, -1.655867]}}, {"type": "Feature", "properties": {"id": 10, "nombre": "Parque Riobamba Norte", "tipo": "recreativo", "subtipo": null, "barrio": "RIOBAMBA NORTE 1 ETAPA", "capa_origen": "ESTABLECIMIENTO_RECREATIVO"}, "geometry": {"type": "Point", "coordinates": [-78.668027, -1.649931]}}, {"type": "Feature", "properties": {"id": 11, "nombre": "Parque Lineal Chibunga", "tipo": "recreativo", "subtipo": null, "barrio": null, "capa_origen": "ESTABLECIMIENTO_RECREATIVO"}, "geometry": {"type": "Point", "coordinates": [-78.651279, -1.689038]}}, {"type": "Feature", "properties": {"id": 12, "nombre": "PARQUE FERNANDO DAQUILEMA", "tipo": "recreativo", "subtipo": null, "barrio": "CENTRAL", "capa_origen": "ESTABLECIMIENTO_RECREATIVO"}, "geometry": {"type": "Point", "coordinates": [-78.675879, -1.689041]}}, {"type": "Feature", "properties": {"id": 13, "nombre": "Parque San Martin (Triangulo)", "tipo": "recreativo", "subtipo": null, "barrio": "EL VERGEL", "capa_origen": "ESTABLECIMIENTO_RECREATIVO"}, "geometry": {"type": "Point", "coordinates": [-78.660169, -1.67114]}}, {"type": "Feature", "properties": {"id": 14, "nombre": "Parque Sesquicentenario", "tipo": "recreativo", "subtipo": null, "barrio": "LOURDES ALTO", "capa_origen": "ESTABLECIMIENTO_RECREATIVO"}, "geometry": {"type": "Point", "coordinates": [-78.669791, -1.657615]}}, {"type": "Feature", "properties": {"id": 15, "nombre": "CANCHAS DE TENIS DEL RIOBAMBA", "tipo": "recreativo", "subtipo": null, "barrio": "TENIS CLUB", "capa_origen": "ESTABLECIMIENTO_RECREATIVO"}, "geometry": {"type": "Point", "coordinates": [-78.641151, -1.687702]}}, {"type": "Feature", "properties": {"id": 16, "nombre": "Plaza Alfaro", "tipo": "recreativo", "subtipo": null, "barrio": "LA ESTACION", "capa_origen": "ESTABLECIMIENTO_RECREATIVO"}, "geometry": {"type": "Point", "coordinates": [-78.653758, -1.669773]}}, {"type": "Feature", "properties": {"id": 17, "nombre": "Parque Frente del Comil", "tipo": "recreativo", "subtipo": null, "barrio": null, "capa_origen": "ESTABLECIMIENTO_RECREATIVO"}, "geometry": {"type": "Point", "coordinates": [-78.649581, -1.663004]}}, {"type": "Feature", "properties": {"id": 18, "nombre": "PARQUE UNINON DE ASENTAMIENTOS DEL NOROCCIDENTE", "tipo": "recreativo", "subtipo": null, "barrio": "UNION DE ASENTAMIENTOS DEL NOROCCIDENTE", "capa_origen": "ESTABLECIMIENTO_RECREATIVO"}, "geometry": {"type": "Point", "coordinates": [-78.684295, -1.661016]}}, {"type": "Feature", "properties": {"id": 19, "nombre": "JUAN MONTALVO", "tipo": "recreativo", "subtipo": null, "barrio": "JUAN MONTALVO", "capa_origen": "ESTABLECIMIENTO_RECREATIVO"}, "geometry": {"type": "Point", "coordinates": [-78.682057, -1.661338]}}, {"type": "Feature", "properties": {"id": 20, "nombre": "Parque", "tipo": "recreativo", "subtipo": null, "barrio": null, "capa_origen": "ESTABLECIMIENTO_RECREATIVO"}, "geometry": {"type": "Point", "coordinates": [-78.68217, -1.662769]}}, {"type": "Feature", "properties": {"id": 21, "nombre": "PARQUE LAS ACACIAS", "tipo": "recreativo", "subtipo": null, "barrio": "URBANIZACION LAS ACACIAS", "capa_origen": "ESTABLECIMIENTO_RECREATIVO"}, "geometry": {"type": "Point", "coordinates": [-78.675905, -1.635631]}}, {"type": "Feature", "properties": {"id": 22, "nombre": "Los Pinos", "tipo": "recreativo", "subtipo": null, "barrio": "LOS PINOS", "capa_origen": "ESTABLECIMIENTO_RECREATIVO"}, "geometry": {"type": "Point", "coordinates": [-78.657603, -1.660421]}}, {"type": "Feature", "properties": {"id": 23, "nombre": "Area Verde Riobamba Norte 3 etapa", "tipo": "recreativo", "subtipo": null, "barrio": "RIOBAMBA NORTE 3 ETAPA", "capa_origen": "ESTABLECIMIENTO_RECREATIVO"}, "geometry": {"type": "Point", "coordinates": [-78.663615, -1.646262]}}, {"type": "Feature", "properties": {"id": 24, "nombre": "Parque Polit\u00e9cnico", "tipo": "recreativo", "subtipo": null, "barrio": "ESPOCH", "capa_origen": "ESTABLECIMIENTO_RECREATIVO"}, "geometry": {"type": "Point", "coordinates": [-78.676331, -1.656879]}}, {"type": "Feature", "properties": {"id": 25, "nombre": "PARQUE LAGUNA SAN ANTONIO DE PADUA", "tipo": "recreativo", "subtipo": null, "barrio": "LAGUNA SAN ANTONIO", "capa_origen": "ESTABLECIMIENTO_RECREATIVO"}, "geometry": {"type": "Point", "coordinates": [-78.6391, -1.651314]}}, {"type": "Feature", "properties": {"id": 26, "nombre": "Cancha Urbanizaci\u00f3n Daquilema", "tipo": "recreativo", "subtipo": null, "barrio": "LOTIZACION DAQUILEMA", "capa_origen": "ESTABLECIMIENTO_RECREATIVO"}, "geometry": {"type": "Point", "coordinates": [-78.634207, -1.686654]}}, {"type": "Feature", "properties": {"id": 27, "nombre": "PARQUE BRIGADA DE GALAPAGOS", "tipo": "recreativo", "subtipo": null, "barrio": "21 DE ABRIL", "capa_origen": "ESTABLECIMIENTO_RECREATIVO"}, "geometry": {"type": "Point", "coordinates": [-78.64285, -1.658851]}}, {"type": "Feature", "properties": {"id": 28, "nombre": "PARQUE CONDIMINIOS CHIMBORAZO", "tipo": "recreativo", "subtipo": null, "barrio": "CONDOMINIOS CHIMBORAZO", "capa_origen": "ESTABLECIMIENTO_RECREATIVO"}, "geometry": {"type": "Point", "coordinates": [-78.659841, -1.658917]}}, {"type": "Feature", "properties": {"id": 29, "nombre": "Parque Infantil", "tipo": "recreativo", "subtipo": null, "barrio": "MUNICIPAL", "capa_origen": "ESTABLECIMIENTO_RECREATIVO"}, "geometry": {"type": "Point", "coordinates": [-78.658584, -1.666013]}}, {"type": "Feature", "properties": {"id": 30, "nombre": "Plaza de rodeo Quinta Macaj\u00ed", "tipo": "recreativo", "subtipo": null, "barrio": "COOPERATIVA 9 DE OCTUBRE", "capa_origen": "ESTABLECIMIENTO_RECREATIVO"}, "geometry": {"type": "Point", "coordinates": [-78.666238, -1.67012]}}, {"type": "Feature", "properties": {"id": 31, "nombre": "PARQUE", "tipo": "recreativo", "subtipo": null, "barrio": "SAN LUIS", "capa_origen": "ESTABLECIMIENTO_RECREATIVO"}, "geometry": {"type": "Point", "coordinates": [-78.665807, -1.669315]}}, {"type": "Feature", "properties": {"id": 32, "nombre": "Parque de la Ciudadela Monse\u00f1or Leonidas Proa\u00f1o", "tipo": "recreativo", "subtipo": null, "barrio": null, "capa_origen": "ESTABLECIMIENTO_RECREATIVO"}, "geometry": {"type": "Point", "coordinates": [-78.645923, -1.687788]}}, {"type": "Feature", "properties": {"id": 33, "nombre": "cancha barrial", "tipo": "recreativo", "subtipo": null, "barrio": "SAN RAFAEL", "capa_origen": "ESTABLECIMIENTO_RECREATIVO"}, "geometry": {"type": "Point", "coordinates": [-78.635214, -1.685615]}}, {"type": "Feature", "properties": {"id": 34, "nombre": "La Dolorosa", "tipo": "recreativo", "subtipo": null, "barrio": "SAN RAFAEL", "capa_origen": "ESTABLECIMIENTO_RECREATIVO"}, "geometry": {"type": "Point", "coordinates": [-78.641716, -1.679446]}}, {"type": "Feature", "properties": {"id": 35, "nombre": "Parque Barrio Saraguro Norte", "tipo": "recreativo", "subtipo": null, "barrio": "LA GEORGINA", "capa_origen": "ESTABLECIMIENTO_RECREATIVO"}, "geometry": {"type": "Point", "coordinates": [-78.660266, -1.657203]}}, {"type": "Feature", "properties": {"id": 36, "nombre": "Parque Ingenieros Civiles", "tipo": "recreativo", "subtipo": null, "barrio": "SAN JOSE DE TAPI", "capa_origen": "ESTABLECIMIENTO_RECREATIVO"}, "geometry": {"type": "Point", "coordinates": [-78.669686, -1.653424]}}, {"type": "Feature", "properties": {"id": 37, "nombre": "ESTADIO OLIMPICO", "tipo": "recreativo", "subtipo": null, "barrio": "ROSA MARIA", "capa_origen": "ESTABLECIMIENTO_RECREATIVO"}, "geometry": {"type": "Point", "coordinates": [-78.660412, -1.666193]}}, {"type": "Feature", "properties": {"id": 38, "nombre": "POLIDEPORTIVO", "tipo": "recreativo", "subtipo": null, "barrio": "LA POLITECNICA", "capa_origen": "ESTABLECIMIENTO_RECREATIVO"}, "geometry": {"type": "Point", "coordinates": [-78.641239, -1.684231]}}, {"type": "Feature", "properties": {"id": 39, "nombre": "Parque Ricpamba", "tipo": "recreativo", "subtipo": null, "barrio": null, "capa_origen": "ESTABLECIMIENTO_RECREATIVO"}, "geometry": {"type": "Point", "coordinates": [-78.679131, -1.666953]}}, {"type": "Feature", "properties": {"id": 40, "nombre": "SPORT PLAZA", "tipo": "recreativo", "subtipo": null, "barrio": "LA DOLOROSA", "capa_origen": "ESTABLECIMIENTO_RECREATIVO"}, "geometry": {"type": "Point", "coordinates": [-78.644094, -1.679383]}}, {"type": "Feature", "properties": {"id": 41, "nombre": "Parque Corazon de Riobamba", "tipo": "recreativo", "subtipo": null, "barrio": "CORAZON DE RIOBAMBA", "capa_origen": "ESTABLECIMIENTO_RECREATIVO"}, "geometry": {"type": "Point", "coordinates": [-78.679935, -1.641981]}}, {"type": "Feature", "properties": {"id": 42, "nombre": "Parque Modesto Arrieta", "tipo": "recreativo", "subtipo": null, "barrio": "MODESTO ARRIETA", "capa_origen": "ESTABLECIMIENTO_RECREATIVO"}, "geometry": {"type": "Point", "coordinates": [-78.682992, -1.639914]}}, {"type": "Feature", "properties": {"id": 44, "nombre": "Cancha de Ciudadela Los Maestros", "tipo": "recreativo", "subtipo": null, "barrio": "COPERATIVA MAESTROS DE CHIMBORAZO", "capa_origen": "ESTABLECIMIENTO_RECREATIVO"}, "geometry": {"type": "Point", "coordinates": [-78.680624, -1.657253]}}, {"type": "Feature", "properties": {"id": 45, "nombre": "Parque Maestros 13 de Abril", "tipo": "recreativo", "subtipo": null, "barrio": "EL RETAMAL", "capa_origen": "ESTABLECIMIENTO_RECREATIVO"}, "geometry": {"type": "Point", "coordinates": [-78.67233, -1.656715]}}, {"type": "Feature", "properties": {"id": 46, "nombre": "Parque Saboya", "tipo": "recreativo", "subtipo": null, "barrio": "LA SABOYA", "capa_origen": "ESTABLECIMIENTO_RECREATIVO"}, "geometry": {"type": "Point", "coordinates": [-78.661769, -1.652666]}}, {"type": "Feature", "properties": {"id": 47, "nombre": "Parque Cisneros de Tapi", "tipo": "recreativo", "subtipo": null, "barrio": null, "capa_origen": "ESTABLECIMIENTO_RECREATIVO"}, "geometry": {"type": "Point", "coordinates": [-78.667128, -1.642958]}}, {"type": "Feature", "properties": {"id": 1, "nombre": "Iglesia Cat\u00f3lica de San Francisco", "tipo": "religioso / cultura", "subtipo": null, "barrio": "SAN FRANCISCO", "capa_origen": "ESTABLECIMIENTO_RELIGIOSO"}, "geometry": {"type": "Point", "coordinates": [-78.646868, -1.674176]}}, {"type": "Feature", "properties": {"id": 2, "nombre": "Iglesia Cat\u00f3lica El Bel\u00e9n | Riobamba", "tipo": "religioso / cultura", "subtipo": null, "barrio": "FERROVIARIO", "capa_origen": "ESTABLECIMIENTO_RELIGIOSO"}, "geometry": {"type": "Point", "coordinates": [-78.658763, -1.670283]}}, {"type": "Feature", "properties": {"id": 3, "nombre": "Iglesia Cat\u00f3lica Sant\u00edsimo Sacramento - Pucar\u00e1", "tipo": "religioso / cultura", "subtipo": null, "barrio": "PUCARA", "capa_origen": "ESTABLECIMIENTO_RELIGIOSO"}, "geometry": {"type": "Point", "coordinates": [-78.636557, -1.681278]}}, {"type": "Feature", "properties": {"id": 4, "nombre": "Iglesia Cat\u00f3lica La Concepci\u00f3n - Santuario del Se\u00f1or del Buen Suceso (1650)", "tipo": "religioso / cultura", "subtipo": null, "barrio": "LA PANADERIA", "capa_origen": "ESTABLECIMIENTO_RELIGIOSO"}, "geometry": {"type": "Point", "coordinates": [-78.648626, -1.670802]}}, {"type": "Feature", "properties": {"id": 5, "nombre": "Iglesia Cat\u00f3lica San Antonio de Padua - Loma de Quito", "tipo": "religioso / cultura", "subtipo": null, "barrio": "LOMA DE QUITO", "capa_origen": "ESTABLECIMIENTO_RELIGIOSO"}, "geometry": {"type": "Point", "coordinates": [-78.652354, -1.666233]}}, {"type": "Feature", "properties": {"id": 6, "nombre": "Iglesia Cat\u00f3lica Santa Faz", "tipo": "religioso / cultura", "subtipo": null, "barrio": "EL TERMINAL", "capa_origen": "ESTABLECIMIENTO_RELIGIOSO"}, "geometry": {"type": "Point", "coordinates": [-78.662602, -1.662275]}}, {"type": "Feature", "properties": {"id": 7, "nombre": "Iglesia Cat\u00f3lica La Dolorosa | Riobamba", "tipo": "religioso / cultura", "subtipo": null, "barrio": "SAN RAFAEL", "capa_origen": "ESTABLECIMIENTO_RELIGIOSO"}, "geometry": {"type": "Point", "coordinates": [-78.641373, -1.680142]}}, {"type": "Feature", "properties": {"id": 8, "nombre": "", "tipo": "religioso / cultura", "subtipo": null, "barrio": "RIOBAMBA NORTE 1 ETAPA", "capa_origen": "ESTABLECIMIENTO_RELIGIOSO"}, "geometry": {"type": "Point", "coordinates": [-78.665814, -1.64989]}}, {"type": "Feature", "properties": {"id": 10, "nombre": "San Vicente de Pa\u00fal", "tipo": "religioso / cultura", "subtipo": null, "barrio": "LA MERCED", "capa_origen": "ESTABLECIMIENTO_RELIGIOSO"}, "geometry": {"type": "Point", "coordinates": [-78.651008, -1.675862]}}, {"type": "Feature", "properties": {"id": 11, "nombre": "Salon del Reino Testigos de Jehova Prado Ceramica San Martin Riobamba", "tipo": "religioso / cultura", "subtipo": null, "barrio": "EUGENIO ESPEJO", "capa_origen": "ESTABLECIMIENTO_RELIGIOSO"}, "geometry": {"type": "Point", "coordinates": [-78.638676, -1.665122]}}, {"type": "Feature", "properties": {"id": 12, "nombre": "Salon del Reino Testigos de Jehova Pucara Puruha", "tipo": "religioso / cultura", "subtipo": null, "barrio": "SAN RAFAEL", "capa_origen": "ESTABLECIMIENTO_RELIGIOSO"}, "geometry": {"type": "Point", "coordinates": [-78.637741, -1.683049]}}, {"type": "Feature", "properties": {"id": 13, "nombre": "Iglesia Nuestra Se\u00f1ora de La Merced | Riobamba", "tipo": "religioso / cultura", "subtipo": null, "barrio": "LA MERCED", "capa_origen": "ESTABLECIMIENTO_RELIGIOSO"}, "geometry": {"type": "Point", "coordinates": [-78.649679, -1.674174]}}, {"type": "Feature", "properties": {"id": 14, "nombre": "Iglesia Cat\u00f3lica San Juan Bautista - Yaruqu\u00edes", "tipo": "religioso / cultura", "subtipo": null, "barrio": "CENTRAL", "capa_origen": "ESTABLECIMIENTO_RELIGIOSO"}, "geometry": {"type": "Point", "coordinates": [-78.676367, -1.689508]}}, {"type": "Feature", "properties": {"id": 15, "nombre": "Iglesia Dios Creador", "tipo": "religioso / cultura", "subtipo": null, "barrio": "EL VERGEL", "capa_origen": "ESTABLECIMIENTO_RELIGIOSO"}, "geometry": {"type": "Point", "coordinates": [-78.659577, -1.670688]}}, {"type": "Feature", "properties": {"id": 17, "nombre": "Iglesia del Nazareno (Bellavista)", "tipo": "religioso / cultura", "subtipo": null, "barrio": "BELLAVISTA", "capa_origen": "ESTABLECIMIENTO_RELIGIOSO"}, "geometry": {"type": "Point", "coordinates": [-78.640642, -1.672592]}}, {"type": "Feature", "properties": {"id": 18, "nombre": "Cemementerio Yaruquies", "tipo": "religioso / cultura", "subtipo": null, "barrio": "LA PISCINA", "capa_origen": "ESTABLECIMIENTO_RELIGIOSO"}, "geometry": {"type": "Point", "coordinates": [-78.679649, -1.690323]}}, {"type": "Feature", "properties": {"id": 19, "nombre": "Capilla Cat\u00f3lica Mar\u00eda Auxiliadora - Colegio Salesianos", "tipo": "religioso / cultura", "subtipo": null, "barrio": "VICTORIA", "capa_origen": "ESTABLECIMIENTO_RELIGIOSO"}, "geometry": {"type": "Point", "coordinates": [-78.656, -1.660809]}}, {"type": "Feature", "properties": {"id": 20, "nombre": "CASA BARRIAL", "tipo": "religioso / cultura", "subtipo": null, "barrio": "LOS MANAZANARES", "capa_origen": "ESTABLECIMIENTO_RELIGIOSO"}, "geometry": {"type": "Point", "coordinates": [-78.67969, -1.647712]}}, {"type": "Feature", "properties": {"id": 21, "nombre": "Iglesia del Nazareno Emaus", "tipo": "religioso / cultura", "subtipo": null, "barrio": "LAGUNA SAN ANTONIO", "capa_origen": "ESTABLECIMIENTO_RELIGIOSO"}, "geometry": {"type": "Point", "coordinates": [-78.640421, -1.653736]}}, {"type": "Feature", "properties": {"id": 22, "nombre": "", "tipo": "religioso / cultura", "subtipo": null, "barrio": "LAGUNA SAN ANTONIO", "capa_origen": "ESTABLECIMIENTO_RELIGIOSO"}, "geometry": {"type": "Point", "coordinates": [-78.639634, -1.649712]}}, {"type": "Feature", "properties": {"id": 23, "nombre": "Iglesia de San Alfonso", "tipo": "religioso / cultura", "subtipo": null, "barrio": "SAN ALFONSO", "capa_origen": "ESTABLECIMIENTO_RELIGIOSO"}, "geometry": {"type": "Point", "coordinates": [-78.646805, -1.671046]}}, {"type": "Feature", "properties": {"id": 24, "nombre": "Catedral Cat\u00f3lica San Pedro de Riobamba", "tipo": "religioso / cultura", "subtipo": null, "barrio": "SAN ALFONSO", "capa_origen": "ESTABLECIMIENTO_RELIGIOSO"}, "geometry": {"type": "Point", "coordinates": [-78.64783, -1.672249]}}, {"type": "Feature", "properties": {"id": 25, "nombre": "Convento Casa Madre", "tipo": "religioso / cultura", "subtipo": null, "barrio": "SANTA MARIANITA", "capa_origen": "ESTABLECIMIENTO_RELIGIOSO"}, "geometry": {"type": "Point", "coordinates": [-78.644572, -1.673055]}}, {"type": "Feature", "properties": {"id": 26, "nombre": "Sal\u00f3n del Reino Testigos de Jehov\u00e1 Joya", "tipo": "religioso / cultura", "subtipo": null, "barrio": "QUINTA LA ROSITA", "capa_origen": "ESTABLECIMIENTO_RELIGIOSO"}, "geometry": {"type": "Point", "coordinates": [-78.646653, -1.679954]}}, {"type": "Feature", "properties": {"id": 27, "nombre": "Iglesia Bellavista", "tipo": "religioso / cultura", "subtipo": null, "barrio": "BELLAVISTA", "capa_origen": "ESTABLECIMIENTO_RELIGIOSO"}, "geometry": {"type": "Point", "coordinates": [-78.638307, -1.673352]}}, {"type": "Feature", "properties": {"id": 28, "nombre": "Iglesia de Jesucristo de los Santos de los \u00daltimos D\u00edas", "tipo": "religioso / cultura", "subtipo": null, "barrio": "SAN JUAN", "capa_origen": "ESTABLECIMIENTO_RELIGIOSO"}, "geometry": {"type": "Point", "coordinates": [-78.65849, -1.662983]}}, {"type": "Feature", "properties": {"id": 29, "nombre": "cementerio", "tipo": "religioso / cultura", "subtipo": null, "barrio": "COOPERATIVA LIBERACION POPULAR", "capa_origen": "ESTABLECIMIENTO_RELIGIOSO"}, "geometry": {"type": "Point", "coordinates": [-78.65859, -1.680175]}}, {"type": "Feature", "properties": {"id": 30, "nombre": "Iglesia Rey de reyes de Chimborazo", "tipo": "religioso / cultura", "subtipo": null, "barrio": "PARQUE INDUSTRIAL", "capa_origen": "ESTABLECIMIENTO_RELIGIOSO"}, "geometry": {"type": "Point", "coordinates": [-78.633909, -1.686329]}}, {"type": "Feature", "properties": {"id": 31, "nombre": "Bas\u00edlica del Sagrado Coraz\u00f3n de Jes\u00fas", "tipo": "religioso / cultura", "subtipo": null, "barrio": "SAN FRANCISCO", "capa_origen": "ESTABLECIMIENTO_RELIGIOSO"}, "geometry": {"type": "Point", "coordinates": [-78.645663, -1.674004]}}, {"type": "Feature", "properties": {"id": 32, "nombre": "Iglesia Cat\u00f3lica Santa Rosa de Lima | Riobamba", "tipo": "religioso / cultura", "subtipo": null, "barrio": "SANTA ROSA", "capa_origen": "ESTABLECIMIENTO_RELIGIOSO"}, "geometry": {"type": "Point", "coordinates": [-78.654031, -1.672957]}}, {"type": "Feature", "properties": {"id": 33, "nombre": "Iglesia San Nicol\u00e1s", "tipo": "religioso / cultura", "subtipo": null, "barrio": "COMPLEJO LA PANADERIA", "capa_origen": "ESTABLECIMIENTO_RELIGIOSO"}, "geometry": {"type": "Point", "coordinates": [-78.644167, -1.66157]}}, {"type": "Feature", "properties": {"id": 34, "nombre": "Primera Iglesia Bautista", "tipo": "religioso / cultura", "subtipo": null, "barrio": "LA TRINIDAD", "capa_origen": "ESTABLECIMIENTO_RELIGIOSO"}, "geometry": {"type": "Point", "coordinates": [-78.641236, -1.670673]}}, {"type": "Feature", "properties": {"id": 35, "nombre": "Iglesia Sinai Riobamba", "tipo": "religioso / cultura", "subtipo": null, "barrio": "AV MALDONADO", "capa_origen": "ESTABLECIMIENTO_RELIGIOSO"}, "geometry": {"type": "Point", "coordinates": [-78.679198, -1.661338]}}, {"type": "Feature", "properties": {"id": 36, "nombre": "Colegio Adolfo- Kolping", "tipo": "religioso / cultura", "subtipo": null, "barrio": "SANTA ROSA", "capa_origen": "ESTABLECIMIENTO_RELIGIOSO"}, "geometry": {"type": "Point", "coordinates": [-78.675514, -1.693828]}}, {"type": "Feature", "properties": {"id": 37, "nombre": "Gnosis", "tipo": "religioso / cultura", "subtipo": null, "barrio": "LOMA DE QUITO", "capa_origen": "ESTABLECIMIENTO_RELIGIOSO"}, "geometry": {"type": "Point", "coordinates": [-78.651854, -1.669015]}}, {"type": "Feature", "properties": {"id": 38, "nombre": "Legi\u00f3n de Mar\u00eda", "tipo": "religioso / cultura", "subtipo": null, "barrio": "LA TRINIDAD", "capa_origen": "ESTABLECIMIENTO_RELIGIOSO"}, "geometry": {"type": "Point", "coordinates": [-78.643866, -1.669455]}}, {"type": "Feature", "properties": {"id": 39, "nombre": "Iglesia Cat\u00f3lica de Las Carmelitas - Nuestra Se\u00f1ora del Carmen", "tipo": "religioso / cultura", "subtipo": null, "barrio": "LAS CARMELITAS", "capa_origen": "ESTABLECIMIENTO_RELIGIOSO"}, "geometry": {"type": "Point", "coordinates": [-78.655198, -1.673982]}}, {"type": "Feature", "properties": {"id": 40, "nombre": "Iglesia Nuestra Se\u00f1ora de F\u00e1tima", "tipo": "religioso / cultura", "subtipo": null, "barrio": "LA ESTACION", "capa_origen": "ESTABLECIMIENTO_RELIGIOSO"}, "geometry": {"type": "Point", "coordinates": [-78.652797, -1.669462]}}, {"type": "Feature", "properties": {"id": 41, "nombre": "Iglesia Cat\u00f3lica Nuestra Se\u00f1ora de Guadalupe | Riobamba", "tipo": "religioso / cultura", "subtipo": null, "barrio": "SUBESTACION ELECTRICA", "capa_origen": "ESTABLECIMIENTO_RELIGIOSO"}, "geometry": {"type": "Point", "coordinates": [-78.685963, -1.656532]}}, {"type": "Feature", "properties": {"id": 42, "nombre": "Iglesia Cat\u00f3lica San Miguel Arc\u00e1ngel de Tapi", "tipo": "religioso / cultura", "subtipo": null, "barrio": "SAN MIGUEL DE TAPI", "capa_origen": "ESTABLECIMIENTO_RELIGIOSO"}, "geometry": {"type": "Point", "coordinates": [-78.672383, -1.644485]}}, {"type": "Feature", "properties": {"id": 43, "nombre": "Iglesia Padre Modesto Arrieta", "tipo": "religioso / cultura", "subtipo": null, "barrio": "PERIMETRO DE LAS INDUSTRIAS", "capa_origen": "ESTABLECIMIENTO_RELIGIOSO"}, "geometry": {"type": "Point", "coordinates": [-78.63624, -1.668483]}}, {"type": "Feature", "properties": {"id": 44, "nombre": "Capilla Cat\u00f3lica Sagrado Coraz\u00f3n de Jes\u00fas", "tipo": "religioso / cultura", "subtipo": null, "barrio": "COOPERATIVA LIBERACION POPULAR", "capa_origen": "ESTABLECIMIENTO_RELIGIOSO"}, "geometry": {"type": "Point", "coordinates": [-78.659435, -1.680061]}}, {"type": "Feature", "properties": {"id": 45, "nombre": "DIOS DE LA PROFESIA", "tipo": "religioso / cultura", "subtipo": null, "barrio": "COMPLEJO LA PANADERIA", "capa_origen": "ESTABLECIMIENTO_RELIGIOSO"}, "geometry": {"type": "Point", "coordinates": [-78.642752, -1.663157]}}, {"type": "Feature", "properties": {"id": 46, "nombre": "Iglesia Cat\u00f3lica Nuestra Se\u00f1ora de La Paz", "tipo": "religioso / cultura", "subtipo": null, "barrio": "LA PAZ", "capa_origen": "ESTABLECIMIENTO_RELIGIOSO"}, "geometry": {"type": "Point", "coordinates": [-78.649246, -1.682202]}}, {"type": "Feature", "properties": {"id": 47, "nombre": "Iglesia Cat\u00f3lica Jes\u00fas Obrero | La Primavera", "tipo": "religioso / cultura", "subtipo": null, "barrio": "LA PRIMAVERA", "capa_origen": "ESTABLECIMIENTO_RELIGIOSO"}, "geometry": {"type": "Point", "coordinates": [-78.660461, -1.675821]}}, {"type": "Feature", "properties": {"id": 48, "nombre": "Iglesia Cat\u00f3lica Santa Anita | Riobamba", "tipo": "religioso / cultura", "subtipo": null, "barrio": "SANTA ANA 1", "capa_origen": "ESTABLECIMIENTO_RELIGIOSO"}, "geometry": {"type": "Point", "coordinates": [-78.690178, -1.630876]}}, {"type": "Feature", "properties": {"id": 1, "nombre": "Hospital Provincial General Docente de Riobamba", "tipo": "salud", "subtipo": null, "barrio": "LA DOLOROSA", "capa_origen": "ESTABLECIMIENTO_SALUD"}, "geometry": {"type": "Point", "coordinates": [-78.64382, -1.681951]}}, {"type": "Feature", "properties": {"id": 2, "nombre": "Solca", "tipo": "salud", "subtipo": null, "barrio": "SAN LUIS", "capa_origen": "ESTABLECIMIENTO_SALUD"}, "geometry": {"type": "Point", "coordinates": [-78.663542, -1.668656]}}, {"type": "Feature", "properties": {"id": 3, "nombre": "Consultorio Medic: Dra. Amanda Fonseca", "tipo": "salud", "subtipo": null, "barrio": "LA SALLE", "capa_origen": "ESTABLECIMIENTO_SALUD"}, "geometry": {"type": "Point", "coordinates": [-78.646407, -1.669149]}}, {"type": "Feature", "properties": {"id": 4, "nombre": "Dr Cezar E Lianga Ch. Pediatrico", "tipo": "salud", "subtipo": null, "barrio": "LA CONDAMINE", "capa_origen": "ESTABLECIMIENTO_SALUD"}, "geometry": {"type": "Point", "coordinates": [-78.65562, -1.673006]}}, {"type": "Feature", "properties": {"id": 5, "nombre": "Dental House", "tipo": "salud", "subtipo": null, "barrio": "LA GIRALDA", "capa_origen": "ESTABLECIMIENTO_SALUD"}, "geometry": {"type": "Point", "coordinates": [-78.654802, -1.664399]}}, {"type": "Feature", "properties": {"id": 6, "nombre": "Hospital B\u00e1sico 11 BCB \u201cGal\u00e1pagos\u201d", "tipo": "salud", "subtipo": null, "barrio": null, "capa_origen": "ESTABLECIMIENTO_SALUD"}, "geometry": {"type": "Point", "coordinates": [-78.654622, -1.656364]}}, {"type": "Feature", "properties": {"id": 7, "nombre": "", "tipo": "salud", "subtipo": null, "barrio": "LA PANADERIA", "capa_origen": "ESTABLECIMIENTO_SALUD"}, "geometry": {"type": "Point", "coordinates": [-78.649157, -1.668254]}}, {"type": "Feature", "properties": {"id": 8, "nombre": "Centro de Salud ESPOCH- Lizarzaburu", "tipo": "salud", "subtipo": null, "barrio": "ESPOCH", "capa_origen": "ESTABLECIMIENTO_SALUD"}, "geometry": {"type": "Point", "coordinates": [-78.684835, -1.648037]}}, {"type": "Feature", "properties": {"id": 9, "nombre": "Hospital del d\u00eda La Dolorosa", "tipo": "salud", "subtipo": null, "barrio": "LA JOYA", "capa_origen": "ESTABLECIMIENTO_SALUD"}, "geometry": {"type": "Point", "coordinates": [-78.64672, -1.679389]}}, {"type": "Feature", "properties": {"id": 10, "nombre": "Centro de Salud Tipo B Santa Rosa", "tipo": "salud", "subtipo": null, "barrio": "COOPERATIVA 9 DE OCTUBRE", "capa_origen": "ESTABLECIMIENTO_SALUD"}, "geometry": {"type": "Point", "coordinates": [-78.66517, -1.672072]}}, {"type": "Feature", "properties": {"id": 11, "nombre": "Subcentro de Salud La Panaderia", "tipo": "salud", "subtipo": null, "barrio": "LA PANADERIA", "capa_origen": "ESTABLECIMIENTO_SALUD"}, "geometry": {"type": "Point", "coordinates": [-78.650223, -1.668829]}}, {"type": "Feature", "properties": {"id": 12, "nombre": "Salud Dual", "tipo": "salud", "subtipo": null, "barrio": "SAN RAFAEL", "capa_origen": "ESTABLECIMIENTO_SALUD"}, "geometry": {"type": "Point", "coordinates": [-78.634981, -1.686941]}}, {"type": "Feature", "properties": {"id": 13, "nombre": "ESPOCH-CAISE", "tipo": "salud", "subtipo": null, "barrio": "ESPOCH", "capa_origen": "ESTABLECIMIENTO_SALUD"}, "geometry": {"type": "Point", "coordinates": [-78.679874, -1.656079]}}, {"type": "Feature", "properties": {"id": 14, "nombre": "Hospital Pedi\u00e1trico Alfonso Villag\u00f3mez", "tipo": "salud", "subtipo": null, "barrio": "LA CONCEPCION", "capa_origen": "ESTABLECIMIENTO_SALUD"}, "geometry": {"type": "Point", "coordinates": [-78.649592, -1.6706]}}, {"type": "Feature", "properties": {"id": 15, "nombre": "Hospital Andino Alternativo Riobamba", "tipo": "salud", "subtipo": null, "barrio": "24 DE MAYO", "capa_origen": "ESTABLECIMIENTO_SALUD"}, "geometry": {"type": "Point", "coordinates": [-78.679389, -1.644735]}}, {"type": "Feature", "properties": {"id": 16, "nombre": "Hospital del IESS", "tipo": "salud", "subtipo": null, "barrio": "PURUHA", "capa_origen": "ESTABLECIMIENTO_SALUD"}, "geometry": {"type": "Point", "coordinates": [-78.659787, -1.668792]}}, {"type": "Feature", "properties": {"id": 17, "nombre": "Cl\u00ednica Santa Cecilia", "tipo": "salud", "subtipo": null, "barrio": "LA ESTACION", "capa_origen": "ESTABLECIMIENTO_SALUD"}, "geometry": {"type": "Point", "coordinates": [-78.652736, -1.670994]}}, {"type": "Feature", "properties": {"id": 18, "nombre": "Cl\u00ednica Metropolitana", "tipo": "salud", "subtipo": null, "barrio": "LA SALLE", "capa_origen": "ESTABLECIMIENTO_SALUD"}, "geometry": {"type": "Point", "coordinates": [-78.648713, -1.668701]}}, {"type": "Feature", "properties": {"id": 19, "nombre": "Ozomedic", "tipo": "salud", "subtipo": null, "barrio": "LA DOLOROSA", "capa_origen": "ESTABLECIMIENTO_SALUD"}, "geometry": {"type": "Point", "coordinates": [-78.64273, -1.67898]}}, {"type": "Feature", "properties": {"id": 20, "nombre": "Cl\u00ednica de los ri\u00f1ones MENIDIAL", "tipo": "salud", "subtipo": null, "barrio": "SAN MIGUEL DE TAPI", "capa_origen": "ESTABLECIMIENTO_SALUD"}, "geometry": {"type": "Point", "coordinates": [-78.674361, -1.64151]}}, {"type": "Feature", "properties": {"id": 21, "nombre": "Hospital Geriatrico Dr. Bolivar Arguello P.", "tipo": "salud", "subtipo": null, "barrio": "SANTA FAZ", "capa_origen": "ESTABLECIMIENTO_SALUD"}, "geometry": {"type": "Point", "coordinates": [-78.653978, -1.679079]}}, {"type": "Feature", "properties": {"id": 22, "nombre": "Inyectolog\u00eda Sra. Manila Salas", "tipo": "salud", "subtipo": null, "barrio": "LA PANADERIA", "capa_origen": "ESTABLECIMIENTO_SALUD"}, "geometry": {"type": "Point", "coordinates": [-78.648834, -1.669602]}}, {"type": "Feature", "properties": {"id": 23, "nombre": "Star Medic", "tipo": "salud", "subtipo": null, "barrio": "LA JOYA", "capa_origen": "ESTABLECIMIENTO_SALUD"}, "geometry": {"type": "Point", "coordinates": [-78.650078, -1.67677]}}, {"type": "Feature", "properties": {"id": 24, "nombre": "centro de Salid N 3", "tipo": "salud", "subtipo": null, "barrio": "BOLIVAR CHIRIBOGA", "capa_origen": "ESTABLECIMIENTO_SALUD"}, "geometry": {"type": "Point", "coordinates": [-78.631911, -1.68179]}}, {"type": "Feature", "properties": {"id": 25, "nombre": "Consultorio Dental", "tipo": "salud", "subtipo": null, "barrio": "LA JOYA", "capa_origen": "ESTABLECIMIENTO_SALUD"}, "geometry": {"type": "Point", "coordinates": [-78.649595, -1.676198]}}, {"type": "Feature", "properties": {"id": 26, "nombre": "Centro de Salud 1", "tipo": "salud", "subtipo": null, "barrio": "SANTA FAZ", "capa_origen": "ESTABLECIMIENTO_SALUD"}, "geometry": {"type": "Point", "coordinates": [-78.652444, -1.679088]}}, {"type": "Feature", "properties": {"id": 27, "nombre": "Dr. Fernanda Ramos D. Odontologa", "tipo": "salud", "subtipo": null, "barrio": "SANTA ROSA", "capa_origen": "ESTABLECIMIENTO_SALUD"}, "geometry": {"type": "Point", "coordinates": [-78.653644, -1.67264]}}, {"type": "Feature", "properties": {"id": 28, "nombre": "Centro de Salud Bellavista", "tipo": "salud", "subtipo": null, "barrio": "BELLAVISTA", "capa_origen": "ESTABLECIMIENTO_SALUD"}, "geometry": {"type": "Point", "coordinates": [-78.637994, -1.674421]}}, {"type": "Feature", "properties": {"id": 29, "nombre": "Centro de especialidades odontologicas M\u00e1s Vida", "tipo": "salud", "subtipo": null, "barrio": "GENERAL DAVALOS", "capa_origen": "ESTABLECIMIENTO_SALUD"}, "geometry": {"type": "Point", "coordinates": [-78.646393, -1.663842]}}, {"type": "Feature", "properties": {"id": 30, "nombre": "Centro Radiol\u00f3gico Imagen Digital", "tipo": "salud", "subtipo": null, "barrio": "LA PANADERIA", "capa_origen": "ESTABLECIMIENTO_SALUD"}, "geometry": {"type": "Point", "coordinates": [-78.650637, -1.669273]}}, {"type": "Feature", "properties": {"id": 31, "nombre": "Consultorio Dental", "tipo": "salud", "subtipo": null, "barrio": "BELLAVISTA", "capa_origen": "ESTABLECIMIENTO_SALUD"}, "geometry": {"type": "Point", "coordinates": [-78.636613, -1.675788]}}, {"type": "Feature", "properties": {"id": 32, "nombre": "J. German Pancho Chavez", "tipo": "salud", "subtipo": null, "barrio": "SANTA ROSA", "capa_origen": "ESTABLECIMIENTO_SALUD"}, "geometry": {"type": "Point", "coordinates": [-78.655496, -1.672751]}}, {"type": "Feature", "properties": {"id": 33, "nombre": "FISIO MEDICAL CENTER", "tipo": "salud", "subtipo": null, "barrio": "JOSE MANCERO", "capa_origen": "ESTABLECIMIENTO_SALUD"}, "geometry": {"type": "Point", "coordinates": [-78.640032, -1.657318]}}, {"type": "Feature", "properties": {"id": 34, "nombre": "Ecudental", "tipo": "salud", "subtipo": null, "barrio": "LA GIRALDA", "capa_origen": "ESTABLECIMIENTO_SALUD"}, "geometry": {"type": "Point", "coordinates": [-78.656341, -1.665149]}}, {"type": "Feature", "properties": {"id": 35, "nombre": "Laboratorio Dental Garcia", "tipo": "salud", "subtipo": null, "barrio": "LA MERCED", "capa_origen": "ESTABLECIMIENTO_SALUD"}, "geometry": {"type": "Point", "coordinates": [-78.652125, -1.673956]}}, {"type": "Feature", "properties": {"id": 36, "nombre": "Hospital San Juan", "tipo": "salud", "subtipo": null, "barrio": "SAN JUAN", "capa_origen": "ESTABLECIMIENTO_SALUD"}, "geometry": {"type": "Point", "coordinates": [-78.659766, -1.662438]}}, {"type": "Feature", "properties": {"id": 37, "nombre": "+ Vida", "tipo": "salud", "subtipo": null, "barrio": "21 DE ABRIL", "capa_origen": "ESTABLECIMIENTO_SALUD"}, "geometry": {"type": "Point", "coordinates": [-78.64445, -1.659751]}}, {"type": "Feature", "properties": {"id": 38, "nombre": "Baby City", "tipo": "salud", "subtipo": null, "barrio": "LA ESTACION", "capa_origen": "ESTABLECIMIENTO_SALUD"}, "geometry": {"type": "Point", "coordinates": [-78.651848, -1.670505]}}, {"type": "Feature", "properties": {"id": 39, "nombre": "Cl\u00ednica Riobamba", "tipo": "salud", "subtipo": null, "barrio": "MUNICIPAL", "capa_origen": "ESTABLECIMIENTO_SALUD"}, "geometry": {"type": "Point", "coordinates": [-78.657609, -1.668328]}}, {"type": "Feature", "properties": {"id": 40, "nombre": "Consultorios Materno Infantil Dr. Lino Rojas - Dra. Blanca Cruz", "tipo": "salud", "subtipo": null, "barrio": "ROSA MARIA", "capa_origen": "ESTABLECIMIENTO_SALUD"}, "geometry": {"type": "Point", "coordinates": [-78.662651, -1.664004]}}, {"type": "Feature", "properties": {"id": 41, "nombre": "centro n3", "tipo": "salud", "subtipo": null, "barrio": "BOLIVAR CHIRIBOGA", "capa_origen": "ESTABLECIMIENTO_SALUD"}, "geometry": {"type": "Point", "coordinates": [-78.631748, -1.681843]}}, {"type": "Feature", "properties": {"id": 42, "nombre": "Cl\u00ednica M\u00e9dica Sur", "tipo": "salud", "subtipo": null, "barrio": "SAN RAFAEL", "capa_origen": "ESTABLECIMIENTO_SALUD"}, "geometry": {"type": "Point", "coordinates": [-78.635347, -1.684998]}}, {"type": "Feature", "properties": {"id": 43, "nombre": "Centro de Salud Loma de Quito", "tipo": "salud", "subtipo": null, "barrio": "21 DE ABRIL", "capa_origen": "ESTABLECIMIENTO_SALUD"}, "geometry": {"type": "Point", "coordinates": [-78.643046, -1.659567]}}, {"type": "Feature", "properties": {"id": 44, "nombre": "Centro de Salud Parque Industria IESS", "tipo": "salud", "subtipo": null, "barrio": "PARQUE INDUSTRIAL", "capa_origen": "ESTABLECIMIENTO_SALUD"}, "geometry": {"type": "Point", "coordinates": [-78.636502, -1.679014]}}, {"type": "Feature", "properties": {"id": 46, "nombre": "Dr. Adolfo Guerra Consultorio Dental", "tipo": "salud", "subtipo": null, "barrio": "LA ESTACION", "capa_origen": "ESTABLECIMIENTO_SALUD"}, "geometry": {"type": "Point", "coordinates": [-78.652394, -1.671455]}}, {"type": "Feature", "properties": {"id": 47, "nombre": "Cl\u00ednica San Marcos", "tipo": "salud", "subtipo": null, "barrio": "LAS CARMELITAS", "capa_origen": "ESTABLECIMIENTO_SALUD"}, "geometry": {"type": "Point", "coordinates": [-78.655001, -1.674587]}}, {"type": "Feature", "properties": {"id": 48, "nombre": "iO Imagen Oral Cl\u00ednica Dental", "tipo": "salud", "subtipo": null, "barrio": "LA MERCED", "capa_origen": "ESTABLECIMIENTO_SALUD"}, "geometry": {"type": "Point", "coordinates": [-78.648393, -1.674546]}}, {"type": "Feature", "properties": {"id": 49, "nombre": "CLINICA SAN ANTONIO", "tipo": "salud", "subtipo": null, "barrio": "FERROVIARIO", "capa_origen": "ESTABLECIMIENTO_SALUD"}, "geometry": {"type": "Point", "coordinates": [-78.656701, -1.67098]}}, {"type": "Feature", "properties": {"id": 50, "nombre": "CLINICA MODERNA", "tipo": "salud", "subtipo": null, "barrio": "FERROVIARIO", "capa_origen": "ESTABLECIMIENTO_SALUD"}, "geometry": {"type": "Point", "coordinates": [-78.655523, -1.67022]}}, {"type": "Feature", "properties": {"id": 51, "nombre": "Cl\u00ednica Chimborazo", "tipo": "salud", "subtipo": null, "barrio": "MUNICIPAL", "capa_origen": "ESTABLECIMIENTO_SALUD"}, "geometry": {"type": "Point", "coordinates": [-78.65805, -1.664808]}}]}