{"type": "FeatureCollection", "features": [{"type": "Feature", "properties": {"item": 36, "proyecto": "ESTUDIO ELECTRICO PARA EL TRANSFORMADOR DE SAN ALFONSO", "categoria": "Fuera del PAC", "parroquia": "VELASCO", "monto": null, "estado": "En desarrollo", "uso": null, "tipologia": null, "escala": null, "aporta": false, "nota": "Estudio el\u00e9ctrico", "sitio": "", "plataforma": "K", "barrio": "SAN ALFONSO"}, "geometry": {"type": "Point", "coordinates": [-78.646365, -1.671487]}}, {"type": "Feature", "properties": {"item": 19, "proyecto": "EJECUCI\u00d3N DE LA CONSTRUCCI\u00d3N DE CUBIERTAS PARA LA CANCHA DE USO MULTIPLE DE LA COMUNIDAD SAN VICENTE Y EL GRADERIO DE LA COMUNIDAD CACHIGUAYCO, PARROQUIA PUNIN", "categoria": "PAC", "parroquia": "PUNIN", "monto": 102999.6, "estado": "Entregado para Contrataci\u00f3n", "uso": null, "tipologia": null, "escala": null, "aporta": false, "nota": "", "sitio": "SAN VICENTE", "plataforma": null, "barrio": null}, "geometry": {"type": "Point", "coordinates": [-78.684691, -1.770536]}}, {"type": "Feature", "properties": {"item": 19, "proyecto": "EJECUCI\u00d3N DE LA CONSTRUCCI\u00d3N DE CUBIERTAS PARA LA CANCHA DE USO MULTIPLE DE LA COMUNIDAD SAN VICENTE Y EL GRADERIO DE LA COMUNIDAD CACHIGUAYCO, PARROQUIA PUNIN", "categoria": "PAC", "parroquia": "PUNIN", "monto": 102999.6, "estado": "Entregado para Contrataci\u00f3n", "uso": null, "tipologia": null, "escala": null, "aporta": false, "nota": "", "sitio": "CACHIGUAYCO", "plataforma": null, "barrio": null}, "geometry": {"type": "Point", "coordinates": [-78.650187, -1.788928]}}, {"type": "Feature", "properties": {"item": 1, "proyecto": "CONSTRUCCI\u00d3N DEL COLECTOR NORORIENTAL (ALCANTARILLADO PLUVIAL) Y PLANTA DE TRATAMIENTO DE AGUAS RESIDUALES , SECTOR NORORIENTAL DEL CANT\u00d3N RIOBAMBA, PROVINCIA DE CHIMBORAZO", "categoria": "PAC", "parroquia": "RIOBAMBA", "monto": 7511016.22, "estado": "Entregado para Contrataci\u00f3n", "uso": null, "tipologia": null, "escala": null, "aporta": false, "nota": "Alcantarillado: red, no equipamiento", "sitio": "", "plataforma": null, "barrio": null}, "geometry": {"type": "Point", "coordinates": [-78.596439, -1.635024]}}, {"type": "Feature", "properties": {"item": 2, "proyecto": "CONSTRUCCI\u00d3N DE BATERIA SANITARIA EN YARUQUIES E ILUMINACI\u00d3N EN LOS PARQUES DE (YARUQUIES Y LA MADRE) DEL CANT\u00d3N RIOBAMBA", "categoria": "PAC", "parroquia": "RIOBAMBA", "monto": 71987.96, "estado": "Entregado para Contrataci\u00f3n", "uso": "Recreativo y Deporte", "tipologia": "Barrial", "escala": null, "aporta": false, "nota": "Mejora parques que ya est\u00e1n inventariados", "sitio": "YARUQU\u00cdES", "plataforma": "N", "barrio": "CENTRAL"}, "geometry": {"type": "Point", "coordinates": [-78.67583, -1.68918]}}, {"type": "Feature", "properties": {"item": 2, "proyecto": "CONSTRUCCI\u00d3N DE BATERIA SANITARIA EN YARUQUIES E ILUMINACI\u00d3N EN LOS PARQUES DE (YARUQUIES Y LA MADRE) DEL CANT\u00d3N RIOBAMBA", "categoria": "PAC", "parroquia": "RIOBAMBA", "monto": 71987.96, "estado": "Entregado para Contrataci\u00f3n", "uso": "Recreativo y Deporte", "tipologia": "Barrial", "escala": null, "aporta": false, "nota": "Mejora parques que ya est\u00e1n inventariados", "sitio": "LA MADRE", "plataforma": "O", "barrio": "BELLAVISTA"}, "geometry": {"type": "Point", "coordinates": [-78.638711, -1.674232]}}, {"type": "Feature", "properties": {"item": 3, "proyecto": "EJECUCI\u00d3N DE LA CONSTRUCCI\u00d3N DE ESPACIOS URBANOS C\u00cdVICO\u2013CULTURALES EN EL CANT\u00d3N RIOBAMBA", "categoria": "PAC", "parroquia": "RIOBAMBA", "monto": 135000.0, "estado": "Entregado para Contrataci\u00f3n", "uso": "Cultural", "tipologia": "Zonal", "escala": "proximidad", "aporta": true, "nota": "Espacios c\u00edvico-culturales (Pluma y Le\u00f3n Dormido)", "sitio": "PLUMA", "plataforma": "H", "barrio": "CEMENTO CHIMBORAZO"}, "geometry": {"type": "Point", "coordinates": [-78.669273, -1.656706]}}, {"type": "Feature", "properties": {"item": 3, "proyecto": "EJECUCI\u00d3N DE LA CONSTRUCCI\u00d3N DE ESPACIOS URBANOS C\u00cdVICO\u2013CULTURALES EN EL CANT\u00d3N RIOBAMBA", "categoria": "PAC", "parroquia": "RIOBAMBA", "monto": 135000.0, "estado": "Entregado para Contrataci\u00f3n", "uso": "Cultural", "tipologia": "Zonal", "escala": "proximidad", "aporta": true, "nota": "Espacios c\u00edvico-culturales (Pluma y Le\u00f3n Dormido)", "sitio": "LE\u00d3N DORMIDO", "plataforma": "G", "barrio": "CISNEROS DE TAPI"}, "geometry": {"type": "Point", "coordinates": [-78.673341, -1.645109]}}, {"type": "Feature", "properties": {"item": 4, "proyecto": "CONSTRUCCION DEL BOULEVARD DE LAS ANIMAS ETAPA I", "categoria": "PAC", "parroquia": "RIOBAMBA", "monto": 259919.55, "estado": "Entregado para Contrataci\u00f3n", "uso": "Recreativo y Deporte", "tipologia": "Zonal", "escala": "proximidad", "aporta": true, "nota": "Boulevard: espacio p\u00fablico nuevo", "sitio": "", "plataforma": "\u00d1", "barrio": "COOPERATIVA LIBERACION POPULAR"}, "geometry": {"type": "Point", "coordinates": [-78.658052, -1.679141]}}, {"type": "Feature", "properties": {"item": 37, "proyecto": "EJECUCI\u00d3N DE LA CONSTRUCCI\u00d3N DEL PARQUE DE LA COOPERATIVA COVETIR", "categoria": "Fuera del PAC", "parroquia": "LIZARZABURU", "monto": null, "estado": "En desarrollo", "uso": "Recreativo y Deporte", "tipologia": "Barrial", "escala": "proximidad", "aporta": true, "nota": "Parque de barrio nuevo", "sitio": "", "plataforma": "H", "barrio": "COPERATIVA SULTANA DE LOS ANDES"}, "geometry": {"type": "Point", "coordinates": [-78.672832, -1.660523]}}, {"type": "Feature", "properties": {"item": 14, "proyecto": "MANTENIMIENTO Y REHABILITACI\u00d3N VIAL DE LAS COMUNIDADES DE LA PARROQUIA CUBIJIES", "categoria": "PAC", "parroquia": "CUBIJIES", "monto": 209954.0, "estado": "Entregado para Contrataci\u00f3n", "uso": null, "tipologia": null, "escala": null, "aporta": false, "nota": "", "sitio": "", "plataforma": null, "barrio": null}, "geometry": {"type": "Point", "coordinates": [-78.599961, -1.661146]}}, {"type": "Feature", "properties": {"item": 10, "proyecto": "EJECUCI\u00d3N DE ADOQUINADO DE V\u00cdAS EN LA CABECERA PARROQUIAL DE PUNGAL\u00c1", "categoria": "PAC", "parroquia": "PUNGALA", "monto": 140000.0, "estado": "Entregado para Contrataci\u00f3n", "uso": null, "tipologia": null, "escala": null, "aporta": false, "nota": "", "sitio": "", "plataforma": null, "barrio": null}, "geometry": {"type": "Point", "coordinates": [-78.593666, -1.817596]}}, {"type": "Feature", "properties": {"item": 13, "proyecto": "READECUACI\u00d3N DEL CEMENTERIO DE LA CABECERA PARROQUIAL DE LICAN", "categoria": "PAC", "parroquia": "LICAN", "monto": 30984.44, "estado": "Entregado para Contrataci\u00f3n", "uso": null, "tipologia": null, "escala": null, "aporta": false, "nota": "", "sitio": "", "plataforma": null, "barrio": null}, "geometry": {"type": "Point", "coordinates": [-78.706298, -1.652938]}}, {"type": "Feature", "properties": {"item": 7, "proyecto": "AMPLIACI\u00d3N DEL PUENTE DE INGRESO A LOS BARRIOS LA VICTORIA Y SAN JOSE DE CHIBUNGA", "categoria": "PAC", "parroquia": "RIOBAMBA", "monto": 149990.83, "estado": "Entregado para Contrataci\u00f3n", "uso": null, "tipologia": null, "escala": null, "aporta": false, "nota": "Vialidad", "sitio": "", "plataforma": null, "barrio": null}, "geometry": {"type": "Point", "coordinates": [-78.663409, -1.682353]}}, {"type": "Feature", "properties": {"item": 9, "proyecto": "READECUACI\u00d3N DE LA INFRAESTRUCTURA FISICA DEL CENTRO DE PRIVACI\u00d3N DE LIBERTAD DE CHIMBORAZO Nro. 1", "categoria": "PAC", "parroquia": "RIOBAMBA", "monto": 67000.0, "estado": "Entregado para Contrataci\u00f3n", "uso": "Especial", "tipologia": "Cantonal", "escala": "ciudad", "aporta": false, "nota": "Centro de privaci\u00f3n de libertad: escala provincial", "sitio": "", "plataforma": null, "barrio": null}, "geometry": {"type": "Point", "coordinates": [-78.631594, -1.690252]}}, {"type": "Feature", "properties": {"item": 23, "proyecto": "EJECUCI\u00d3N DE LA CONSTRUCCI\u00d3N DEL SISTEMA DE DRENAJE DEL ESTADIO DE LA CABECERA PARROQUIAL DE FLORES", "categoria": "PAC", "parroquia": "FLORES", "monto": 10000.0, "estado": "En desarrollo", "uso": null, "tipologia": null, "escala": null, "aporta": false, "nota": "", "sitio": "", "plataforma": null, "barrio": null}, "geometry": {"type": "Point", "coordinates": [-78.64645, -1.817556]}}, {"type": "Feature", "properties": {"item": 11, "proyecto": "EJECUCI\u00d3N DEL ADOQUINADO DE PURUHAYPAMBA DE LA PARROQUIA PUNGALA", "categoria": "PAC", "parroquia": "PUNGALA", "monto": 65646.85, "estado": "Entregado para Contrataci\u00f3n", "uso": null, "tipologia": null, "escala": null, "aporta": false, "nota": "", "sitio": "", "plataforma": null, "barrio": null}, "geometry": {"type": "Point", "coordinates": [-78.591076, -1.835787]}}, {"type": "Feature", "properties": {"item": 12, "proyecto": "EJECUCI\u00d3N DE ADOQUINADO DE VARIAS V\u00cdAS DE LA CABECERA PARROQUIAL DE LICTO", "categoria": "PAC", "parroquia": "LICTO", "monto": 77719.1, "estado": "Entregado para Contrataci\u00f3n", "uso": null, "tipologia": null, "escala": null, "aporta": false, "nota": "", "sitio": "", "plataforma": null, "barrio": null}, "geometry": {"type": "Point", "coordinates": [-78.604162, -1.807568]}}, {"type": "Feature", "properties": {"item": 15, "proyecto": "READECUACI\u00d3N DEL COLISEO DE LA PARROQUIA CUBIJIES", "categoria": "PAC", "parroquia": "CUBIJIES", "monto": 64003.68, "estado": "Entregado para Contrataci\u00f3n", "uso": null, "tipologia": null, "escala": null, "aporta": false, "nota": "", "sitio": "", "plataforma": null, "barrio": null}, "geometry": {"type": "Point", "coordinates": [-78.587295, -1.645508]}}, {"type": "Feature", "properties": {"item": 5, "proyecto": "CONSTRUCCI\u00d3N DE B\u00d3VEDAS EN EL CEMENTERIO GENERAL DE RIOBAMBA FASE II", "categoria": "PAC", "parroquia": "RIOBAMBA", "monto": 150000.0, "estado": "En desarrollo", "uso": "Servicios Funerarios", "tipologia": "Cantonal", "escala": "ciudad", "aporta": false, "nota": "Cementerio general: dotaci\u00f3n de todo el cant\u00f3n", "sitio": "", "plataforma": "\u00d1", "barrio": "COOPERATIVA LIBERACION POPULAR"}, "geometry": {"type": "Point", "coordinates": [-78.655848, -1.680777]}}, {"type": "Feature", "properties": {"item": 16, "proyecto": "EJECUCI\u00d3N DE LA CONSTRUCCI\u00d3N DE LA CUBIERTA MET\u00c1LICA DE LA CANCHA COMUNIDAD SHILPALA, PARROQUIA CACHA", "categoria": "PAC", "parroquia": "CACHA", "monto": 79961.28, "estado": "Entregado para Contrataci\u00f3n", "uso": null, "tipologia": null, "escala": null, "aporta": false, "nota": "", "sitio": "", "plataforma": null, "barrio": null}, "geometry": {"type": "Point", "coordinates": [-78.688887, -1.704294]}}, {"type": "Feature", "properties": {"item": 18, "proyecto": "ASFALTADO DE VIAS PARA LAS COMUNIDADES CACHA, PUCARAQUINCHE - CACHA HUAGSHI", "categoria": "PAC", "parroquia": "CACHA", "monto": 631662.81, "estado": "Entregado para Contrataci\u00f3n", "uso": null, "tipologia": null, "escala": null, "aporta": false, "nota": "", "sitio": "PUCARAQUINCHE", "plataforma": null, "barrio": null}, "geometry": {"type": "Point", "coordinates": [-78.703885, -1.718321]}}, {"type": "Feature", "properties": {"item": 18, "proyecto": "ASFALTADO DE VIAS PARA LAS COMUNIDADES CACHA, PUCARAQUINCHE - CACHA HUAGSHI", "categoria": "PAC", "parroquia": "CACHA", "monto": 631662.81, "estado": "Entregado para Contrataci\u00f3n", "uso": null, "tipologia": null, "escala": null, "aporta": false, "nota": "", "sitio": "HUAGSHI", "plataforma": null, "barrio": null}, "geometry": {"type": "Point", "coordinates": [-78.702006, -1.718916]}}, {"type": "Feature", "properties": {"item": 20, "proyecto": "CONSTRUCCI\u00d3N DE BATERIAS SANITARIAS Y VESTIDORES DE LA COMUNIDAD DE SAN JUAN DE PALLO, PARROQUIA PUNIN", "categoria": "PAC", "parroquia": "PUNIN", "monto": 71998.58, "estado": "Entregado para Contrataci\u00f3n", "uso": null, "tipologia": null, "escala": null, "aporta": false, "nota": "", "sitio": "", "plataforma": null, "barrio": null}, "geometry": {"type": "Point", "coordinates": [-78.694868, -1.748887]}}, {"type": "Feature", "properties": {"item": 21, "proyecto": "MEJORAMIENTO DE ESPACIOS RECREATIVOS DE COMUNIDADES DE LA PARROQUIA PUNIN", "categoria": "PAC", "parroquia": "PUNIN", "monto": 28822.97, "estado": "Entregado para Contrataci\u00f3n", "uso": null, "tipologia": null, "escala": null, "aporta": false, "nota": "", "sitio": "EL CHUIPE", "plataforma": null, "barrio": null}, "geometry": {"type": "Point", "coordinates": [-78.65769, -1.769192]}}, {"type": "Feature", "properties": {"item": 21, "proyecto": "MEJORAMIENTO DE ESPACIOS RECREATIVOS DE COMUNIDADES DE LA PARROQUIA PUNIN", "categoria": "PAC", "parroquia": "PUNIN", "monto": 28822.97, "estado": "Entregado para Contrataci\u00f3n", "uso": null, "tipologia": null, "escala": null, "aporta": false, "nota": "", "sitio": "SIGUIL\u00c1N", "plataforma": null, "barrio": null}, "geometry": {"type": "Point", "coordinates": [-78.672485, -1.735757]}}, {"type": "Feature", "properties": {"item": 22, "proyecto": "CONSTRUCCI\u00d3N DE BORDILLOS EN LA COMUNIDAD SAN ISIDRO DE PUNIN", "categoria": "PAC", "parroquia": "PUNIN", "monto": 62302.54, "estado": "Entregado para Contrataci\u00f3n", "uso": null, "tipologia": null, "escala": null, "aporta": false, "nota": "", "sitio": "", "plataforma": null, "barrio": null}, "geometry": {"type": "Point", "coordinates": [-78.647718, -1.744619]}}, {"type": "Feature", "properties": {"item": 6, "proyecto": "REHABILITACI\u00d3N URBANA DE  LA CALLE VELOZ ENTRE LAS CALLES 5 DE JUNIO Y PEDRO DE ALVARADO", "categoria": "PAC", "parroquia": "RIOBAMBA", "monto": 619802.4, "estado": "En desarrollo", "uso": null, "tipologia": null, "escala": null, "aporta": false, "nota": "Vialidad", "sitio": "", "plataforma": "\u00d1", "barrio": "SAN FRANCISCO"}, "geometry": {"type": "Point", "coordinates": [-78.646459, -1.673856]}}, {"type": "Feature", "properties": {"item": 38, "proyecto": "ELABORACI\u00d3N DEL DESPIECE DEL MONUMENTO DEL MONUMENTO ROJO", "categoria": "Fuera del PAC", "parroquia": "RIOBAMBA", "monto": null, "estado": "Entregado para Contrataci\u00f3n", "uso": null, "tipologia": null, "escala": null, "aporta": false, "nota": "Estudio: despiece de un monumento", "sitio": "", "plataforma": "J", "barrio": "ROSA MARIA"}, "geometry": {"type": "Point", "coordinates": [-78.660002, -1.667219]}}, {"type": "Feature", "properties": {"item": 17, "proyecto": "EJECUCI\u00d3N DE CENTRO TURISTICO DE SAN MIGUEL DE QUERA FASE I PARROQUIA CACHA", "categoria": "PAC", "parroquia": "CACHA", "monto": 79901.45, "estado": "En desarrollo", "uso": null, "tipologia": null, "escala": null, "aporta": false, "nota": "", "sitio": "", "plataforma": null, "barrio": null}, "geometry": {"type": "Point", "coordinates": [-78.723286, -1.720519]}}, {"type": "Feature", "properties": {"item": 25, "proyecto": "REMODELACI\u00d3N DEL MERCADO DE LA PARROQUIA SAN JUAN", "categoria": "PAC", "parroquia": "SAN JUAN", "monto": 90999.98, "estado": "Entregado para Contrataci\u00f3n", "uso": null, "tipologia": null, "escala": null, "aporta": false, "nota": "", "sitio": "", "plataforma": null, "barrio": null}, "geometry": {"type": "Point", "coordinates": [-78.781749, -1.6339]}}, {"type": "Feature", "properties": {"item": 27, "proyecto": "EJECUCI\u00d3N DE LA CONSTRUCCI\u00d3N DE EL TEMPLO DEL SER  ETAPA I", "categoria": "Fuera del PAC", "parroquia": "RIOBAMBA", "monto": null, "estado": "En desarrollo", "uso": "Cultural", "tipologia": "Cantonal", "escala": "proximidad", "aporta": true, "nota": "Equipamiento cultural nuevo, 5.425 m\u00b2", "sitio": "", "plataforma": "J", "barrio": "SAN LUIS"}, "geometry": {"type": "Point", "coordinates": [-78.663515, -1.66741]}}, {"type": "Feature", "properties": {"item": 28, "proyecto": "CONSTRUCCI\u00d3N DEL PARQUE LAS ACACIAS FASE II", "categoria": "Fuera del PAC", "parroquia": "RIOBAMBA", "monto": 225887.18, "estado": "Entregado para Contrataci\u00f3n", "uso": "Recreativo y Deporte", "tipologia": "Zonal", "escala": "proximidad", "aporta": true, "nota": "Parque nuevo de 10.357 m\u00b2", "sitio": "", "plataforma": "B", "barrio": "URBANIZACION LAS ACACIAS"}, "geometry": {"type": "Point", "coordinates": [-78.676625, -1.635331]}}, {"type": "Feature", "properties": {"item": 26, "proyecto": "EJECUCI\u00d3N DE LA CONSTRUCCI\u00d3N DE LA CASA DEL TEREQUE ETAPA I", "categoria": "Fuera del PAC", "parroquia": "RIOBAMBA", "monto": 250000.0, "estado": "En desarrollo", "uso": "Cultural", "tipologia": "Zonal", "escala": "proximidad", "aporta": true, "nota": "Equipamiento cultural nuevo, 1.500 m\u00b2", "sitio": "", "plataforma": "Q", "barrio": "PARQUE INDUSTRIAL"}, "geometry": {"type": "Point", "coordinates": [-78.631371, -1.681982]}}, {"type": "Feature", "properties": {"item": 29, "proyecto": "\u201cCONSULTOR\u00cdA PARA LOS ESTUDIOS Y DISE\u00d1OS DEFINITIVOS PARA LA EJECUCI\u00d3N DE LA CONSTRUCCI\u00d3N DEL CENTRO DE ENTRENAMIENTO EN ALTURA EN LA COMUNIDAD SHOBOL LLINLL\u00cdN PARROQUIA SAN JUAN CANT\u00d3N RIOBAMBA\u201d", "categoria": "PAC", "parroquia": "SAN JUAN", "monto": 70000.0, "estado": "Entregado para Contrataci\u00f3n", "uso": null, "tipologia": null, "escala": null, "aporta": false, "nota": "", "sitio": "", "plataforma": null, "barrio": null}, "geometry": {"type": "Point", "coordinates": [-78.798095, -1.603274]}}, {"type": "Feature", "properties": {"item": 30, "proyecto": "PRESTACI\u00d3N DEL SERVICIO DE CONSULTOR\u00cdA PARA ELABORAR LOS ESTUDIOS Y DISE\u00d1OS DEFINITIVOS PARA LA REMODELACI\u00d3N DE LA PISCINA UBICADA EN LA PARROQUIA YARUQU\u00cdES CANT\u00d3N RIOBAMBA", "categoria": "PAC", "parroquia": "YARUQUIES", "monto": 37500.0, "estado": "Entregado para Contrataci\u00f3n", "uso": null, "tipologia": null, "escala": null, "aporta": false, "nota": "Consultor\u00eda: todav\u00eda no es obra", "sitio": "", "plataforma": "N", "barrio": "LA PISCINA"}, "geometry": {"type": "Point", "coordinates": [-78.679182, -1.690671]}}, {"type": "Feature", "properties": {"item": 31, "proyecto": "READECUACI\u00d3N DE LAS INSTALACIONES DEL CENTRO DE INTERPRETACI\u00d3N AMBIENTAL- RICPAMBA", "categoria": "PAC", "parroquia": "RIOBAMBA", "monto": 86667.17, "estado": "Entregado para Contrataci\u00f3n", "uso": "Cultural", "tipologia": "Cantonal", "escala": null, "aporta": false, "nota": "Readecuaci\u00f3n de algo que ya existe", "sitio": "", "plataforma": null, "barrio": null}, "geometry": {"type": "Point", "coordinates": [-78.678837, -1.666879]}}, {"type": "Feature", "properties": {"item": 33, "proyecto": "EJECUCI\u00d3N DE LA CONSTRUCCI\u00d3N DE GRADER\u00cdOS CON CUBIERTA Y CERRAMIENTO DEL ESTADIO DE LA COMUNIDAD AMULA SHIHUIQUIS", "categoria": "PAC", "parroquia": "CACHA", "monto": 67206.39, "estado": "En desarrollo", "uso": null, "tipologia": null, "escala": null, "aporta": false, "nota": "", "sitio": "", "plataforma": null, "barrio": null}, "geometry": {"type": "Point", "coordinates": [-78.722165, -1.692996]}}, {"type": "Feature", "properties": {"item": 32, "proyecto": "READECUACI\u00d3N Y MEJORAMIENTO DE LAS INSTALACIONES DEL CENTRO DE RESCATE INTEGRAL ANIMAL DE RIOBAMBA \u2013 PATITAS RIOBAMBA (CRIAR)", "categoria": "PAC", "parroquia": "RIOBAMBA", "monto": 160000.0, "estado": "En desarrollo", "uso": "Especial", "tipologia": "Cantonal", "escala": "ciudad", "aporta": false, "nota": "Centro de rescate animal: dotaci\u00f3n de todo el cant\u00f3n", "sitio": "", "plataforma": "\u00d1", "barrio": "LA FLORIDA"}, "geometry": {"type": "Point", "coordinates": [-78.650977, -1.687882]}}, {"type": "Feature", "properties": {"item": 8, "proyecto": "CONSTRUCCI\u00d3N DEL CERRAMIENTO EN EL PREDIO LA MATILDE Y ADECENTAMIENTO DE SUS ESPACIOS EXTERIORES", "categoria": "PAC", "parroquia": "RIOBAMBA", "monto": 239991.04, "estado": "Entregado para Contrataci\u00f3n", "uso": "Recreativo y Deporte", "tipologia": "Zonal", "escala": "proximidad", "aporta": true, "nota": "La Matilde: se habilita el espacio exterior", "sitio": "", "plataforma": "\u00d1", "barrio": "LOS ARUPOS"}, "geometry": {"type": "Point", "coordinates": [-78.645242, -1.682144]}}]}