{"type": "FeatureCollection", "features": [{"type": "Feature", "properties": {"clave": "LIZARZABURU", "nombre": "Lizarzaburu", "area_ha": 1290.9578468397208}, "geometry": {"type": "Polygon", "coordinates": [[[-78.651642, -1.676238], [-78.655558, -1.680949], [-78.659192, -1.676619], [-78.659894, -1.677435], [-78.660794, -1.678588], [-78.662402, -1.681567], [-78.662703, -1.682053], [-78.662675, -1.682146], [-78.662687, -1.682209], [-78.662832, -1.682362], [-78.66304, -1.68247], [-78.66324, -1.682519], [-78.663578, -1.682703], [-78.664198, -1.682902], [-78.664911, -1.682831], [-78.665417, -1.682871], [-78.665934, -1.683051], [-78.666551, -1.683327], [-78.674199, -1.687087], [-78.675505, -1.685467], [-78.675177, -1.685344], [-78.675011, -1.685205], [-78.674375, -1.684899], [-78.673696, -1.684907], [-78.672948, -1.684797], [-78.672573, -1.684546], [-78.672337, -1.684457], [-78.671902, -1.68447], [-78.671563, -1.684347], [-78.671162, -1.68412], [-78.670684, -1.684067], [-78.670066, -1.68357], [-78.669639, -1.683457], [-78.669517, -1.683489], [-78.668799, -1.683398], [-78.668087, -1.683087], [-78.667136, -1.682846], [-78.666471, -1.682582], [-78.665806, -1.68239], [-78.665212, -1.682366], [-78.664359, -1.682383], [-78.663763, -1.682483], [-78.663577, -1.682454], [-78.663411, -1.682358], [-78.66324, -1.68243], [-78.663021, -1.682429], [-78.662864, -1.682343], [-78.662708, -1.682176], [-78.663147, -1.68198], [-78.663668, -1.681998], [-78.663721, -1.68183], [-78.663658, -1.681213], [-78.663512, -1.680807], [-78.663521, -1.68072], [-78.663737, -1.680326], [-78.663788, -1.67972], [-78.66402, -1.679434], [-78.664049, -1.67915], [-78.66391, -1.678823], [-78.663972, -1.678016], [-78.66368, -1.677646], [-78.663716, -1.677388], [-78.664301, -1.676994], [-78.664383, -1.676822], [-78.664487, -1.676754], [-78.664661, -1.676934], [-78.664765, -1.676927], [-78.664832, -1.676887], [-78.66485, -1.676668], [-78.664655, -1.676012], [-78.664691, -1.6758], [-78.664535, -1.675434], [-78.664903, -1.674749], [-78.665599, -1.674201], [-78.665774, -1.6739], [-78.66596, -1.67334], [-78.666198, -1.673405], [-78.666309, -1.673298], [-78.666529, -1.672389], [-78.66685, -1.671981], [-78.666951, -1.671464], [-78.667307, -1.671615], [-78.667614, -1.671558], [-78.667971, -1.67097], [-78.668192, -1.67087], [-78.668221, -1.670727], [-78.6682, -1.670497], [-78.668264, -1.670332], [-78.668428, -1.67021], [-78.669155, -1.670268], [-78.669573, -1.670088], [-78.669258, -1.669367], [-78.669182, -1.668917], [-78.669164, -1.668371], [-78.668119, -1.66726], [-78.6683, -1.667232], [-78.668671, -1.66729], [-78.669174, -1.667434], [-78.669621, -1.667501], [-78.670087, -1.667406], [-78.67391, -1.666052], [-78.675681, -1.665399], [-78.676436, -1.665065], [-78.677824, -1.664636], [-78.678832, -1.664513], [-78.683111, -1.664274], [-78.683493, -1.664117], [-78.684367, -1.663382], [-78.685235, -1.663075], [-78.686041, -1.662121], [-78.686441, -1.661872], [-78.688096, -1.66153], [-78.688533, -1.661338], [-78.689698, -1.661501], [-78.691406, -1.661087], [-78.692105, -1.661892], [-78.693367, -1.662255], [-78.694283, -1.660261], [-78.695464, -1.6594], [-78.695449, -1.659383], [-78.695506, -1.659344], [-78.6959, -1.659235], [-78.696562, -1.658972], [-78.696723, -1.659083], [-78.696875, -1.659025], [-78.69707, -1.658882], [-78.697227, -1.658815], [-78.697422, -1.658777], [-78.697522, -1.658682], [-78.697516, -1.658418], [-78.69766, -1.657862], [-78.697781, -1.657646], [-78.697571, -1.657424], [-78.697258, -1.657], [-78.69651, -1.656088], [-78.696261, -1.655539], [-78.695231, -1.655872], [-78.695132, -1.655768], [-78.695062, -1.655795], [-78.693829, -1.654298], [-78.693839, -1.654262], [-78.694843, -1.653338], [-78.692379, -1.650694], [-78.692785, -1.650233], [-78.692835, -1.650242], [-78.692894, -1.650158], [-78.692125, -1.65001], [-78.69223, -1.649486], [-78.69224, -1.649069], [-78.690603, -1.649163], [-78.696485, -1.630539], [-78.685139, -1.623361], [-78.685079, -1.62342], [-78.684961, -1.623444], [-78.684384, -1.623454], [-78.684073, -1.623508], [-78.683998, -1.623644], [-78.683926, -1.623709], [-78.683587, -1.623837], [-78.683276, -1.624057], [-78.682925, -1.624233], [-78.682583, -1.624584], [-78.682503, -1.624809], [-78.682503, -1.625086], [-78.68263, -1.62534], [-78.682515, -1.625397], [-78.682339, -1.625387], [-78.682277, -1.625406], [-78.682244, -1.62545], [-78.68224, -1.625571], [-78.68231, -1.625761], [-78.682298, -1.625853], [-78.68213, -1.625974], [-78.681819, -1.626001], [-78.681381, -1.626149], [-78.681102, -1.626339], [-78.680866, -1.62655], [-78.680772, -1.626678], [-78.68061, -1.627014], [-78.680509, -1.627138], [-78.680769, -1.632475], [-78.681052, -1.634867], [-78.681075, -1.635477], [-78.680993, -1.635959], [-78.68085, -1.636236], [-78.666293, -1.654119], [-78.661894, -1.660046], [-78.658641, -1.66482], [-78.658299, -1.664461], [-78.648822, -1.672782], [-78.651642, -1.676238]]]}}, {"type": "Feature", "properties": {"clave": "VELASCO", "nombre": "Velasco", "area_ha": 911.359101858322}, "geometry": {"type": "Polygon", "coordinates": [[[-78.634207, -1.659253], [-78.635033, -1.659742], [-78.636615, -1.660404], [-78.637017, -1.66063], [-78.637529, -1.660969], [-78.640027, -1.663239], [-78.641955, -1.664638], [-78.642487, -1.665079], [-78.648822, -1.672782], [-78.658299, -1.664461], [-78.658641, -1.66482], [-78.661894, -1.660046], [-78.666293, -1.654119], [-78.68085, -1.636236], [-78.680993, -1.635959], [-78.681075, -1.635477], [-78.681052, -1.634867], [-78.680769, -1.632475], [-78.680509, -1.627138], [-78.679928, -1.627849], [-78.679538, -1.628129], [-78.679339, -1.62823], [-78.679205, -1.628409], [-78.678881, -1.628666], [-78.678768, -1.628864], [-78.678725, -1.629296], [-78.678423, -1.629672], [-78.678283, -1.630008], [-78.67816, -1.630221], [-78.67802, -1.630339], [-78.678124, -1.630521], [-78.678119, -1.630693], [-78.678078, -1.630831], [-78.677772, -1.631385], [-78.677757, -1.631628], [-78.677341, -1.632064], [-78.677309, -1.63215], [-78.677303, -1.632619], [-78.677282, -1.632714], [-78.677183, -1.632813], [-78.677176, -1.632856], [-78.677217, -1.633053], [-78.677398, -1.633193], [-78.67745, -1.633276], [-78.677435, -1.633399], [-78.676898, -1.633839], [-78.676638, -1.634146], [-78.676391, -1.63433], [-78.676081, -1.634395], [-78.675733, -1.634384], [-78.675612, -1.634506], [-78.675177, -1.634749], [-78.675136, -1.634873], [-78.675157, -1.634972], [-78.675284, -1.635137], [-78.67531, -1.635321], [-78.675278, -1.635427], [-78.675159, -1.635582], [-78.675171, -1.636641], [-78.675148, -1.636725], [-78.675018, -1.636917], [-78.675009, -1.637431], [-78.674485, -1.637843], [-78.674348, -1.638116], [-78.674309, -1.638324], [-78.674225, -1.638391], [-78.674059, -1.638372], [-78.673814, -1.638212], [-78.673654, -1.63821], [-78.67358, -1.638236], [-78.673508, -1.638374], [-78.673571, -1.638576], [-78.673525, -1.638697], [-78.673427, -1.6387], [-78.673164, -1.638538], [-78.673068, -1.63854], [-78.672662, -1.638685], [-78.672229, -1.638933], [-78.671898, -1.638943], [-78.671763, -1.639095], [-78.671611, -1.63937], [-78.67149, -1.63943], [-78.671403, -1.63943], [-78.671294, -1.639368], [-78.671282, -1.639074], [-78.671135, -1.639047], [-78.670818, -1.638606], [-78.670713, -1.638543], [-78.670676, -1.638558], [-78.670609, -1.638696], [-78.670495, -1.638818], [-78.670405, -1.638738], [-78.670275, -1.638763], [-78.670001, -1.638726], [-78.669772, -1.638577], [-78.669349, -1.638475], [-78.669229, -1.638499], [-78.669031, -1.638707], [-78.668911, -1.638724], [-78.668341, -1.638489], [-78.668229, -1.638487], [-78.66797, -1.638554], [-78.667838, -1.638546], [-78.667677, -1.63849], [-78.667439, -1.638536], [-78.667133, -1.638463], [-78.666999, -1.63846], [-78.666927, -1.638513], [-78.66687, -1.638647], [-78.666903, -1.638929], [-78.666837, -1.63914], [-78.666501, -1.639339], [-78.666377, -1.639503], [-78.666126, -1.639956], [-78.665698, -1.640231], [-78.665671, -1.640441], [-78.665576, -1.640563], [-78.665389, -1.640717], [-78.665252, -1.640908], [-78.665062, -1.641065], [-78.664924, -1.641416], [-78.664885, -1.641674], [-78.664816, -1.641806], [-78.664676, -1.641948], [-78.664538, -1.642144], [-78.664276, -1.642652], [-78.66397, -1.643008], [-78.663616, -1.643266], [-78.663336, -1.643384], [-78.663276, -1.643366], [-78.663097, -1.643219], [-78.662903, -1.643222], [-78.662606, -1.6431], [-78.661881, -1.643272], [-78.660975, -1.643155], [-78.660716, -1.643154], [-78.660491, -1.643216], [-78.66, -1.643421], [-78.659755, -1.643647], [-78.659625, -1.6439], [-78.659579, -1.644116], [-78.659406, -1.644628], [-78.65916, -1.644865], [-78.65887, -1.64502], [-78.658506, -1.645413], [-78.658351, -1.645541], [-78.65817, -1.645586], [-78.657815, -1.645559], [-78.657516, -1.645494], [-78.657234, -1.645494], [-78.656852, -1.645567], [-78.656679, -1.645815], [-78.656602, -1.64618], [-78.656546, -1.646278], [-78.656484, -1.646303], [-78.656224, -1.646257], [-78.656004, -1.646375], [-78.655948, -1.646339], [-78.655713, -1.646045], [-78.655601, -1.646004], [-78.655483, -1.646004], [-78.655033, -1.646158], [-78.654762, -1.646204], [-78.65464, -1.646193], [-78.654461, -1.646296], [-78.654317, -1.646882], [-78.654189, -1.647242], [-78.654092, -1.647383], [-78.653709, -1.647768], [-78.653484, -1.647948], [-78.653258, -1.648228], [-78.652933, -1.648431], [-78.652689, -1.648506], [-78.652462, -1.648541], [-78.652111, -1.648529], [-78.651872, -1.648271], [-78.651787, -1.648235], [-78.651435, -1.648399], [-78.651249, -1.648338], [-78.651047, -1.648143], [-78.650632, -1.648023], [-78.650395, -1.647922], [-78.650233, -1.647811], [-78.650128, -1.647701], [-78.650006, -1.647483], [-78.649709, -1.647227], [-78.649542, -1.647008], [-78.649451, -1.646938], [-78.649332, -1.646869], [-78.648908, -1.64679], [-78.64869, -1.646694], [-78.64855, -1.64655], [-78.648511, -1.646434], [-78.648277, -1.646326], [-78.648061, -1.646164], [-78.647816, -1.646147], [-78.647404, -1.645998], [-78.647314, -1.646009], [-78.647238, -1.64612], [-78.647155, -1.646128], [-78.647076, -1.646033], [-78.646949, -1.646002], [-78.646743, -1.645887], [-78.646512, -1.645541], [-78.646193, -1.645407], [-78.646087, -1.645235], [-78.646044, -1.645038], [-78.645979, -1.644897], [-78.645827, -1.644782], [-78.645692, -1.644481], [-78.64559, -1.644326], [-78.645416, -1.644094], [-78.645067, -1.643769], [-78.644936, -1.643542], [-78.644881, -1.643037], [-78.645239, -1.642368], [-78.645325, -1.642137], [-78.645323, -1.64193], [-78.645236, -1.641789], [-78.644717, -1.64149], [-78.644378, -1.641405], [-78.643741, -1.64132], [-78.64352, -1.641206], [-78.643198, -1.640644], [-78.643041, -1.640489], [-78.642525, -1.640232], [-78.642175, -1.639578], [-78.64201, -1.639404], [-78.641436, -1.639174], [-78.641362, -1.639075], [-78.64118, -1.638657], [-78.641086, -1.638558], [-78.640939, -1.638493], [-78.640844, -1.638492], [-78.640649, -1.63856], [-78.640181, -1.638992], [-78.639958, -1.63926], [-78.639797, -1.639573], [-78.639677, -1.639633], [-78.639226, -1.639583], [-78.639044, -1.63959], [-78.638722, -1.639657], [-78.63855, -1.639367], [-78.638431, -1.639043], [-78.638396, -1.639011], [-78.637915, -1.638856], [-78.638655, -1.640529], [-78.641285, -1.646039], [-78.641824, -1.647247], [-78.641123, -1.647629], [-78.640003, -1.648093], [-78.638927, -1.648955], [-78.63749, -1.649527], [-78.637223, -1.649578], [-78.637287, -1.649888], [-78.637548, -1.650428], [-78.637621, -1.650667], [-78.637759, -1.651624], [-78.637695, -1.65203], [-78.63754, -1.652491], [-78.637573, -1.654166], [-78.637538, -1.654392], [-78.63696, -1.655605], [-78.636924, -1.655828], [-78.636942, -1.656255], [-78.636913, -1.656394], [-78.636548, -1.657208], [-78.635704, -1.65812], [-78.634341, -1.656959], [-78.633351, -1.658565], [-78.633959, -1.658997], [-78.634207, -1.659253]]]}}, {"type": "Feature", "properties": {"clave": "YARUQUIES", "nombre": "Yaruqu\u00edes", "area_ha": 72.47880112662301}, "geometry": {"type": "Polygon", "coordinates": [[[-78.674199, -1.687087], [-78.673263, -1.688641], [-78.673465, -1.688786], [-78.673465, -1.688963], [-78.673246, -1.689054], [-78.673136, -1.689259], [-78.673103, -1.689604], [-78.67327, -1.690545], [-78.672873, -1.691129], [-78.673126, -1.691976], [-78.673527, -1.692579], [-78.67346, -1.692777], [-78.673247, -1.693069], [-78.673164, -1.693342], [-78.673307, -1.693664], [-78.673597, -1.693731], [-78.673919, -1.69375], [-78.674244, -1.694433], [-78.674385, -1.695361], [-78.674346, -1.695441], [-78.674417, -1.695699], [-78.674507, -1.69579], [-78.674631, -1.695776], [-78.674821, -1.695705], [-78.675287, -1.695413], [-78.675321, -1.695289], [-78.675392, -1.695217], [-78.675839, -1.694869], [-78.675762, -1.694743], [-78.675826, -1.694677], [-78.676008, -1.694274], [-78.676273, -1.694185], [-78.676372, -1.694338], [-78.676515, -1.694291], [-78.676639, -1.694133], [-78.676692, -1.693951], [-78.676952, -1.69371], [-78.67816, -1.693685], [-78.678167, -1.693281], [-78.678039, -1.69272], [-78.678156, -1.69252], [-78.678213, -1.692138], [-78.678946, -1.691385], [-78.679064, -1.690957], [-78.679124, -1.690998], [-78.679333, -1.691314], [-78.679437, -1.691319], [-78.679523, -1.691118], [-78.679821, -1.69075], [-78.680345, -1.690235], [-78.680353, -1.690003], [-78.68068, -1.689833], [-78.680651, -1.689761], [-78.680372, -1.689455], [-78.680363, -1.689403], [-78.680462, -1.689187], [-78.680771, -1.689072], [-78.680899, -1.688991], [-78.68089, -1.688895], [-78.680348, -1.68878], [-78.680239, -1.688687], [-78.680092, -1.688617], [-78.679731, -1.688234], [-78.679817, -1.688081], [-78.679612, -1.687875], [-78.67999, -1.687465], [-78.679385, -1.686923], [-78.679861, -1.686431], [-78.679681, -1.686143], [-78.679583, -1.685689], [-78.680163, -1.685173], [-78.680058, -1.685106], [-78.679739, -1.684991], [-78.679778, -1.68478], [-78.679859, -1.684632], [-78.679825, -1.684603], [-78.679921, -1.684441], [-78.680031, -1.684335], [-78.679998, -1.684131], [-78.680118, -1.683863], [-78.680738, -1.683257], [-78.681119, -1.68263], [-78.68035, -1.682426], [-78.679924, -1.683034], [-78.679612, -1.683354], [-78.679265, -1.683346], [-78.679076, -1.683301], [-78.67899, -1.683325], [-78.679001, -1.683473], [-78.678735, -1.683699], [-78.678412, -1.683869], [-78.677651, -1.684026], [-78.677452, -1.684055], [-78.677265, -1.683809], [-78.676986, -1.683967], [-78.676796, -1.684235], [-78.676585, -1.684431], [-78.676415, -1.684487], [-78.676222, -1.684815], [-78.675636, -1.685126], [-78.675505, -1.685467], [-78.674199, -1.687087]]]}}, {"type": "Feature", "properties": {"clave": "VELOZ", "nombre": "Veloz", "area_ha": 397.4230398950648}, "geometry": {"type": "Polygon", "coordinates": [[[-78.666551, -1.683327], [-78.665934, -1.683051], [-78.665417, -1.682871], [-78.664911, -1.682831], [-78.664198, -1.682902], [-78.663578, -1.682703], [-78.66324, -1.682519], [-78.66304, -1.68247], [-78.662832, -1.682362], [-78.662687, -1.682209], [-78.662675, -1.682146], [-78.662703, -1.682053], [-78.662402, -1.681567], [-78.660794, -1.678588], [-78.659894, -1.677435], [-78.659192, -1.676619], [-78.655558, -1.680949], [-78.651642, -1.676238], [-78.648822, -1.672782], [-78.626671, -1.691311], [-78.628722, -1.693944], [-78.629671, -1.692688], [-78.631936, -1.68945], [-78.632212, -1.689642], [-78.632913, -1.689975], [-78.633678, -1.690124], [-78.63451, -1.690184], [-78.635066, -1.690187], [-78.635577, -1.690168], [-78.63613, -1.690062], [-78.636607, -1.689908], [-78.637043, -1.689698], [-78.637397, -1.689469], [-78.638661, -1.690839], [-78.640994, -1.693477], [-78.64161, -1.69276], [-78.641992, -1.692455], [-78.642229, -1.692346], [-78.642658, -1.691966], [-78.643435, -1.691155], [-78.643968, -1.690475], [-78.643967, -1.690317], [-78.644334, -1.690356], [-78.644516, -1.69048], [-78.645158, -1.691443], [-78.6459, -1.692113], [-78.64607, -1.692301], [-78.647148, -1.692302], [-78.647264, -1.692133], [-78.647436, -1.691972], [-78.647508, -1.691703], [-78.647431, -1.691069], [-78.647556, -1.690896], [-78.647871, -1.690932], [-78.648156, -1.690753], [-78.648585, -1.689827], [-78.648889, -1.689385], [-78.649056, -1.688948], [-78.649169, -1.688781], [-78.649318, -1.688638], [-78.649555, -1.688566], [-78.650126, -1.688579], [-78.65075, -1.688705], [-78.651023, -1.688664], [-78.65154, -1.68818], [-78.651832, -1.688067], [-78.652824, -1.687889], [-78.653169, -1.68762], [-78.653705, -1.686969], [-78.653997, -1.686299], [-78.654122, -1.685935], [-78.654259, -1.68578], [-78.654384, -1.685714], [-78.654645, -1.68572], [-78.654829, -1.68578], [-78.65499, -1.685757], [-78.655162, -1.685565], [-78.655396, -1.68517], [-78.65612, -1.684245], [-78.656513, -1.683803], [-78.656787, -1.683708], [-78.65728, -1.683762], [-78.65747, -1.683721], [-78.65769, -1.683338], [-78.658101, -1.68304], [-78.658422, -1.682986], [-78.658796, -1.683023], [-78.659152, -1.682969], [-78.660138, -1.683245], [-78.660685, -1.683198], [-78.660863, -1.683127], [-78.661309, -1.683235], [-78.661502, -1.683223], [-78.662016, -1.683099], [-78.662215, -1.683152], [-78.662438, -1.683343], [-78.662585, -1.68375], [-78.662646, -1.684041], [-78.663026, -1.684446], [-78.663726, -1.684763], [-78.664159, -1.684873], [-78.66439, -1.684747], [-78.664894, -1.684777], [-78.665113, -1.684873], [-78.665303, -1.684873], [-78.665498, -1.684643], [-78.665641, -1.68461], [-78.665803, -1.684621], [-78.665825, -1.684587], [-78.666493, -1.684648], [-78.666611, -1.684525], [-78.666896, -1.684439], [-78.667438, -1.68443], [-78.667647, -1.684507], [-78.668084, -1.684584], [-78.668246, -1.684728], [-78.668445, -1.684848], [-78.668603, -1.685013], [-78.668916, -1.685146], [-78.669015, -1.685107], [-78.669605, -1.685146], [-78.669795, -1.685218], [-78.66989, -1.685328], [-78.669999, -1.685625], [-78.670184, -1.685768], [-78.670412, -1.685903], [-78.670806, -1.686018], [-78.670961, -1.685971], [-78.671082, -1.686004], [-78.671495, -1.686325], [-78.671628, -1.686579], [-78.671623, -1.686732], [-78.671718, -1.686961], [-78.671827, -1.687095], [-78.671936, -1.687086], [-78.672117, -1.687196], [-78.672164, -1.687746], [-78.672401, -1.688029], [-78.672876, -1.688493], [-78.673263, -1.688641], [-78.674199, -1.687087], [-78.666551, -1.683327]]]}}, {"type": "Feature", "properties": {"clave": "MALDONADO", "nombre": "Maldonado", "area_ha": 422.71519340631596}, "geometry": {"type": "Polygon", "coordinates": [[[-78.642487, -1.665079], [-78.641955, -1.664638], [-78.640027, -1.663239], [-78.637529, -1.660969], [-78.637017, -1.66063], [-78.636615, -1.660404], [-78.635033, -1.659742], [-78.634207, -1.659253], [-78.633959, -1.658997], [-78.633852, -1.659076], [-78.633602, -1.659147], [-78.633331, -1.659298], [-78.632982, -1.659699], [-78.63266, -1.659914], [-78.632139, -1.660609], [-78.631968, -1.660731], [-78.631618, -1.660709], [-78.631262, -1.660745], [-78.631048, -1.660924], [-78.631244, -1.661113], [-78.633013, -1.662371], [-78.633601, -1.662724], [-78.634812, -1.662947], [-78.635449, -1.663236], [-78.634935, -1.663953], [-78.634477, -1.664699], [-78.634035, -1.665272], [-78.633449, -1.666133], [-78.632743, -1.667651], [-78.632198, -1.668907], [-78.632023, -1.669405], [-78.631713, -1.670025], [-78.631519, -1.670586], [-78.631158, -1.671302], [-78.630566, -1.672286], [-78.630322, -1.672519], [-78.629376, -1.673576], [-78.628962, -1.674135], [-78.628443, -1.674941], [-78.628199, -1.675448], [-78.628077, -1.675873], [-78.627622, -1.677087], [-78.626854, -1.678647], [-78.626795, -1.679007], [-78.626613, -1.679265], [-78.626451, -1.679846], [-78.626044, -1.680778], [-78.625468, -1.681834], [-78.625365, -1.681856], [-78.625322, -1.682723], [-78.625445, -1.683805], [-78.625605, -1.684643], [-78.625616, -1.68493], [-78.625711, -1.685139], [-78.626379, -1.685851], [-78.626902, -1.686816], [-78.624979, -1.688022], [-78.624601, -1.687618], [-78.623553, -1.688176], [-78.624394, -1.689513], [-78.625146, -1.68928], [-78.626671, -1.691311], [-78.648822, -1.672782], [-78.642487, -1.665079]]]}}]}