{"type": "FeatureCollection", "features": [{"type": "Feature", "properties": {"numero": 1, "clave": "F", "nombre": "PLATAFORMA F", "area_ha": 118.1837, "area_ha_geom": 118.18, "rotulo_lon": -78.672229, "rotulo_lat": -1.652769}, "geometry": {"type": "Polygon", "coordinates": [[[-78.674767, -1.659994], [-78.674512, -1.660186], [-78.673997, -1.65966], [-78.674786, -1.658869], [-78.674583, -1.658689], [-78.67221, -1.65613], [-78.673129, -1.654775], [-78.673558, -1.653902], [-78.673452, -1.653769], [-78.674406, -1.653012], [-78.675478, -1.654529], [-78.676826, -1.652466], [-78.676655, -1.652239], [-78.680213, -1.650068], [-78.680862, -1.649579], [-78.68214, -1.648827], [-78.682728, -1.64836], [-78.683205, -1.648039], [-78.684661, -1.647136], [-78.673684, -1.645013], [-78.667617, -1.652523], [-78.669337, -1.654473], [-78.670591, -1.655978], [-78.67153, -1.657009], [-78.671217, -1.657257], [-78.671357, -1.657455], [-78.671419, -1.657687], [-78.671511, -1.65837], [-78.671826, -1.658895], [-78.672518, -1.658351], [-78.674216, -1.660626], [-78.675341, -1.659781], [-78.675328, -1.659736], [-78.675001, -1.659556], [-78.674767, -1.659994]]]}}, {"type": "Feature", "properties": {"numero": 2, "clave": "C", "nombre": "PLATAFORMA C", "area_ha": 240.7954, "area_ha_geom": 240.8, "rotulo_lon": -78.685383, "rotulo_lat": -1.640486}, "geometry": {"type": "Polygon", "coordinates": [[[-78.68775, -1.647793], [-78.688178, -1.647937], [-78.688679, -1.648309], [-78.689391, -1.649127], [-78.690246, -1.650176], [-78.690603, -1.649162], [-78.694583, -1.636561], [-78.694417, -1.636269], [-78.69397, -1.634805], [-78.693621, -1.634022], [-78.693215, -1.634036], [-78.693001, -1.633971], [-78.692827, -1.633836], [-78.692686, -1.633997], [-78.691581, -1.635871], [-78.691401, -1.635966], [-78.69122, -1.636014], [-78.691077, -1.636157], [-78.690925, -1.636071], [-78.690811, -1.636109], [-78.690782, -1.636195], [-78.690373, -1.636357], [-78.690145, -1.636366], [-78.689917, -1.636538], [-78.689859, -1.636739], [-78.689868, -1.637275], [-78.689326, -1.637542], [-78.689079, -1.637513], [-78.688231, -1.636858], [-78.687705, -1.635982], [-78.686265, -1.634805], [-78.686316, -1.634731], [-78.684562, -1.632867], [-78.68404, -1.6324], [-78.682781, -1.63118], [-78.682702, -1.631466], [-78.681536, -1.631405], [-78.681234, -1.631352], [-78.68152, -1.634833], [-78.681561, -1.635885], [-78.6815, -1.636307], [-78.680994, -1.636005], [-78.680914, -1.636179], [-78.680778, -1.636372], [-78.673684, -1.645013], [-78.684661, -1.647136], [-78.68775, -1.647793]]]}}, {"type": "Feature", "properties": {"numero": 3, "clave": "H", "nombre": "PLATAFORMA H", "area_ha": 163.6504, "area_ha_geom": 163.65, "rotulo_lon": -78.669135, "rotulo_lat": -1.660067}, "geometry": {"type": "Polygon", "coordinates": [[[-78.675159, -1.661566], [-78.675179, -1.660353], [-78.675151, -1.660213], [-78.675341, -1.659781], [-78.674216, -1.660626], [-78.672518, -1.658351], [-78.671826, -1.658895], [-78.671511, -1.65837], [-78.671419, -1.657687], [-78.671357, -1.657455], [-78.671217, -1.657257], [-78.67153, -1.657009], [-78.670591, -1.655978], [-78.669337, -1.654473], [-78.667617, -1.652523], [-78.663786, -1.657152], [-78.663889, -1.657029], [-78.663843, -1.657928], [-78.66402, -1.658567], [-78.66434, -1.6595], [-78.664382, -1.659924], [-78.664553, -1.660204], [-78.664812, -1.660454], [-78.663819, -1.661246], [-78.663144, -1.661583], [-78.663026, -1.661613], [-78.662838, -1.661577], [-78.664801, -1.664597], [-78.664997, -1.664872], [-78.665296, -1.665151], [-78.665691, -1.665357], [-78.666754, -1.665705], [-78.666909, -1.665838], [-78.667972, -1.667315], [-78.6682, -1.667263], [-78.668419, -1.667251], [-78.66878, -1.667323], [-78.669388, -1.667499], [-78.669616, -1.667506], [-78.66993, -1.667473], [-78.67032, -1.667354], [-78.677803, -1.664648], [-78.678655, -1.664525], [-78.680294, -1.664449], [-78.681164, -1.663577], [-78.681142, -1.663203], [-78.681158, -1.662965], [-78.681131, -1.662845], [-78.680418, -1.660417], [-78.677497, -1.661265], [-78.675152, -1.661907], [-78.674983, -1.661659], [-78.675159, -1.661566]]]}}, {"type": "Feature", "properties": {"numero": 4, "clave": "A", "nombre": "PLATAFORMA A", "area_ha": 151.2931, "area_ha_geom": 151.29, "rotulo_lon": -78.689104, "rotulo_lat": -1.630445}, "geometry": {"type": "Polygon", "coordinates": [[[-78.687705, -1.635982], [-78.688231, -1.636858], [-78.689079, -1.637513], [-78.689326, -1.637542], [-78.689868, -1.637275], [-78.689859, -1.636739], [-78.689917, -1.636538], [-78.690145, -1.636366], [-78.690373, -1.636357], [-78.690782, -1.636195], [-78.690811, -1.636109], [-78.690925, -1.636071], [-78.691077, -1.636157], [-78.69122, -1.636014], [-78.691401, -1.635966], [-78.691581, -1.635871], [-78.692686, -1.633997], [-78.692827, -1.633836], [-78.693001, -1.633971], [-78.693215, -1.634036], [-78.693621, -1.634022], [-78.69397, -1.634805], [-78.694417, -1.636269], [-78.694583, -1.636561], [-78.696485, -1.630538], [-78.693005, -1.628338], [-78.685139, -1.62336], [-78.685079, -1.623419], [-78.684961, -1.623443], [-78.684384, -1.623453], [-78.684136, -1.623483], [-78.684073, -1.623507], [-78.683998, -1.623643], [-78.683926, -1.623708], [-78.683587, -1.623836], [-78.683276, -1.624056], [-78.682925, -1.624232], [-78.682583, -1.624583], [-78.682503, -1.624808], [-78.682486, -1.62497], [-78.682525, -1.625144], [-78.68263, -1.625339], [-78.682515, -1.625396], [-78.682339, -1.625386], [-78.682256, -1.62543], [-78.68224, -1.62557], [-78.68231, -1.625761], [-78.682298, -1.625852], [-78.68213, -1.625973], [-78.681819, -1.626], [-78.681381, -1.626148], [-78.681102, -1.626338], [-78.680866, -1.626549], [-78.680772, -1.626677], [-78.68061, -1.627013], [-78.680472, -1.627183], [-78.680531, -1.627578], [-78.681222, -1.627272], [-78.6811, -1.627506], [-78.680991, -1.627968], [-78.681011, -1.629027], [-78.681081, -1.629896], [-78.681252, -1.629971], [-78.682691, -1.631096], [-78.68404, -1.6324], [-78.684562, -1.632867], [-78.686316, -1.634731], [-78.686265, -1.634805], [-78.687705, -1.635982]]]}}, {"type": "Feature", "properties": {"numero": 5, "clave": "B", "nombre": "PLATAFORMA B", "area_ha": 137.593, "area_ha_geom": 137.59, "rotulo_lon": -78.678065, "rotulo_lat": -1.636088}, "geometry": {"type": "Polygon", "coordinates": [[[-78.681561, -1.635885], [-78.68152, -1.634833], [-78.681234, -1.631352], [-78.681536, -1.631405], [-78.682702, -1.631466], [-78.682781, -1.63118], [-78.681252, -1.629971], [-78.681081, -1.629896], [-78.681011, -1.629027], [-78.680991, -1.627968], [-78.6811, -1.627506], [-78.681222, -1.627272], [-78.680531, -1.627578], [-78.680472, -1.627183], [-78.679928, -1.627849], [-78.679538, -1.628129], [-78.679339, -1.62823], [-78.679205, -1.628409], [-78.678881, -1.628666], [-78.678768, -1.628864], [-78.678725, -1.629296], [-78.678423, -1.629672], [-78.678283, -1.630008], [-78.67816, -1.630221], [-78.67802, -1.630339], [-78.678124, -1.630521], [-78.678119, -1.630693], [-78.678078, -1.630831], [-78.677772, -1.631385], [-78.677757, -1.631628], [-78.677341, -1.632063], [-78.677309, -1.632149], [-78.677303, -1.632619], [-78.677282, -1.632714], [-78.677183, -1.632812], [-78.677176, -1.632855], [-78.677217, -1.633052], [-78.677398, -1.633192], [-78.67745, -1.633275], [-78.677435, -1.633399], [-78.676898, -1.633839], [-78.676638, -1.634146], [-78.676391, -1.63433], [-78.676081, -1.634395], [-78.675733, -1.634384], [-78.675612, -1.634506], [-78.675177, -1.634749], [-78.675136, -1.634872], [-78.675157, -1.634971], [-78.675284, -1.635136], [-78.67531, -1.635321], [-78.675278, -1.635427], [-78.675159, -1.635582], [-78.675171, -1.636641], [-78.675148, -1.636725], [-78.675018, -1.636917], [-78.675009, -1.63743], [-78.674485, -1.637843], [-78.674348, -1.638116], [-78.674309, -1.638324], [-78.674225, -1.638391], [-78.674162, -1.638394], [-78.674059, -1.638372], [-78.673814, -1.638212], [-78.673654, -1.63821], [-78.67358, -1.638236], [-78.673508, -1.638374], [-78.673571, -1.638576], [-78.673525, -1.638697], [-78.673427, -1.6387], [-78.673164, -1.638538], [-78.673068, -1.63854], [-78.672662, -1.638685], [-78.672229, -1.638933], [-78.671898, -1.638943], [-78.671763, -1.639095], [-78.671611, -1.63937], [-78.67149, -1.63943], [-78.671403, -1.63943], [-78.671294, -1.639368], [-78.671282, -1.639074], [-78.671135, -1.639047], [-78.670818, -1.638606], [-78.670713, -1.638543], [-78.670676, -1.638558], [-78.670609, -1.638696], [-78.670495, -1.638818], [-78.670405, -1.638738], [-78.670275, -1.638763], [-78.670001, -1.638726], [-78.669772, -1.638577], [-78.669349, -1.638475], [-78.669229, -1.638499], [-78.669031, -1.638707], [-78.668911, -1.638724], [-78.668336, -1.638489], [-78.668225, -1.638487], [-78.667966, -1.638554], [-78.667833, -1.638546], [-78.667672, -1.63849], [-78.667434, -1.638536], [-78.667129, -1.638463], [-78.666994, -1.63846], [-78.666922, -1.638513], [-78.666865, -1.638647], [-78.666898, -1.638929], [-78.666832, -1.63914], [-78.666496, -1.639339], [-78.666372, -1.639503], [-78.666121, -1.639956], [-78.665693, -1.640231], [-78.665666, -1.640441], [-78.665572, -1.640563], [-78.665384, -1.640717], [-78.665247, -1.640908], [-78.665057, -1.641065], [-78.664919, -1.641416], [-78.66488, -1.641674], [-78.664811, -1.641806], [-78.664671, -1.641948], [-78.664534, -1.642144], [-78.664271, -1.642652], [-78.663965, -1.643008], [-78.663628, -1.643252], [-78.664267, -1.643431], [-78.665188, -1.64356], [-78.666456, -1.643964], [-78.668635, -1.644311], [-78.670026, -1.644414], [-78.670929, -1.644522], [-78.671751, -1.644655], [-78.672825, -1.644931], [-78.673684, -1.645013], [-78.680778, -1.636372], [-78.680914, -1.636179], [-78.680994, -1.636005], [-78.6815, -1.636307], [-78.681561, -1.635885]]]}}, {"type": "Feature", "properties": {"numero": 6, "clave": "K", "nombre": "PLATAFORMA K", "area_ha": 158.148, "area_ha_geom": 145.72, "rotulo_lon": -78.650099, "rotulo_lat": -1.669762}, "geometry": {"type": "Polygon", "coordinates": [[[-78.656976, -1.668781], [-78.656841, -1.668819], [-78.655869, -1.66767], [-78.655928, -1.667625], [-78.654934, -1.666474], [-78.655515, -1.665973], [-78.654013, -1.664227], [-78.651426, -1.666501], [-78.649971, -1.664714], [-78.649312, -1.665301], [-78.649346, -1.663335], [-78.648467, -1.664114], [-78.648009, -1.663535], [-78.647457, -1.664019], [-78.646923, -1.663345], [-78.645687, -1.664347], [-78.644532, -1.665364], [-78.643585, -1.666118], [-78.643366, -1.666371], [-78.641718, -1.66769], [-78.64216, -1.668211], [-78.642674, -1.66779], [-78.644867, -1.670371], [-78.642597, -1.672372], [-78.643097, -1.672946], [-78.644203, -1.671936], [-78.64514, -1.673032], [-78.644014, -1.674037], [-78.644446, -1.674539], [-78.646145, -1.673066], [-78.64661, -1.67368], [-78.647206, -1.673172], [-78.648629, -1.674907], [-78.648066, -1.675383], [-78.64854, -1.67598], [-78.649145, -1.675488], [-78.649611, -1.676078], [-78.650142, -1.675568], [-78.651012, -1.676666], [-78.656581, -1.671825], [-78.6566, -1.671797], [-78.656232, -1.671307], [-78.655746, -1.67173], [-78.655221, -1.671103], [-78.65573, -1.670656], [-78.655341, -1.670163], [-78.65704, -1.668869], [-78.656976, -1.668781]]]}}, {"type": "Feature", "properties": {"numero": 7, "clave": "I", "nombre": "PLATAFORMA I", "area_ha": 100.0123, "area_ha_geom": 100.01, "rotulo_lon": -78.65644, "rotulo_lat": -1.660798}, "geometry": {"type": "Polygon", "coordinates": [[[-78.662048, -1.657856], [-78.657706, -1.655113], [-78.657302, -1.656277], [-78.65718, -1.65626], [-78.656189, -1.656379], [-78.655488, -1.656552], [-78.655081, -1.656743], [-78.65494, -1.656696], [-78.654727, -1.656831], [-78.654457, -1.657067], [-78.654146, -1.657388], [-78.653946, -1.657653], [-78.653604, -1.658309], [-78.653024, -1.660097], [-78.652767, -1.660602], [-78.652586, -1.660443], [-78.652519, -1.660511], [-78.65212, -1.660145], [-78.651923, -1.660376], [-78.651467, -1.660763], [-78.652003, -1.661386], [-78.650257, -1.662854], [-78.649357, -1.663548], [-78.649312, -1.665301], [-78.649971, -1.664714], [-78.651426, -1.666501], [-78.654013, -1.664227], [-78.655515, -1.665973], [-78.656069, -1.665471], [-78.656543, -1.666015], [-78.658309, -1.664472], [-78.658641, -1.66482], [-78.660542, -1.662088], [-78.661913, -1.66002], [-78.662031, -1.659754], [-78.663013, -1.658309], [-78.662917, -1.658276], [-78.662839, -1.658194], [-78.662048, -1.657856]]]}}, {"type": "Feature", "properties": {"numero": 8, "clave": "D", "nombre": "PLATAFORMA D", "area_ha": 195.8332, "area_ha_geom": 195.83, "rotulo_lon": -78.688501, "rotulo_lat": -1.65624}, "geometry": {"type": "Polygon", "coordinates": [[[-78.680399, -1.659359], [-78.680595, -1.659546], [-78.680684, -1.659614], [-78.681411, -1.659981], [-78.68138, -1.660164], [-78.68042, -1.660423], [-78.681131, -1.662845], [-78.681158, -1.662965], [-78.681142, -1.663203], [-78.681164, -1.663577], [-78.680294, -1.664449], [-78.681779, -1.66432], [-78.682245, -1.66434], [-78.683082, -1.664293], [-78.683405, -1.664246], [-78.684271, -1.663472], [-78.684739, -1.66325], [-78.685235, -1.663075], [-78.686041, -1.662121], [-78.686441, -1.661872], [-78.688096, -1.66153], [-78.688533, -1.661338], [-78.689698, -1.661501], [-78.691406, -1.661087], [-78.692105, -1.661892], [-78.693367, -1.662255], [-78.694283, -1.660261], [-78.695464, -1.6594], [-78.695449, -1.659383], [-78.695506, -1.659344], [-78.6959, -1.659235], [-78.696562, -1.658972], [-78.696723, -1.659083], [-78.696875, -1.659025], [-78.69707, -1.658882], [-78.697227, -1.658815], [-78.697422, -1.658777], [-78.697522, -1.658682], [-78.697516, -1.658418], [-78.69766, -1.657862], [-78.697781, -1.657646], [-78.697571, -1.657424], [-78.697258, -1.657], [-78.69651, -1.656088], [-78.696261, -1.655539], [-78.695231, -1.655872], [-78.695132, -1.655768], [-78.69506, -1.655795], [-78.694138, -1.654673], [-78.693839, -1.654261], [-78.694843, -1.653337], [-78.692379, -1.650693], [-78.692785, -1.650232], [-78.692835, -1.650241], [-78.692894, -1.650157], [-78.692125, -1.650009], [-78.69223, -1.649485], [-78.69224, -1.649068], [-78.690603, -1.649162], [-78.690246, -1.650176], [-78.689391, -1.649127], [-78.688679, -1.648309], [-78.688273, -1.647991], [-78.688205, -1.648093], [-78.686482, -1.64983], [-78.686481, -1.6499], [-78.687839, -1.652145], [-78.687364, -1.652425], [-78.686705, -1.651791], [-78.686123, -1.651348], [-78.685766, -1.651604], [-78.684577, -1.652601], [-78.683988, -1.653139], [-78.684599, -1.65351], [-78.68511, -1.653888], [-78.684676, -1.654174], [-78.68404, -1.654508], [-78.683749, -1.654616], [-78.683174, -1.654781], [-78.682155, -1.654984], [-78.680724, -1.655973], [-78.679767, -1.656689], [-78.680428, -1.658541], [-78.680467, -1.65886], [-78.680399, -1.659359]]]}}, {"type": "Feature", "properties": {"numero": 9, "clave": "G", "nombre": "PLATAFORMA G", "area_ha": 123.5826, "area_ha_geom": 123.58, "rotulo_lon": -78.664923, "rotulo_lat": -1.650192}, "geometry": {"type": "Polygon", "coordinates": [[[-78.660347, -1.650285], [-78.660293, -1.650476], [-78.660305, -1.650588], [-78.660354, -1.650691], [-78.660511, -1.650874], [-78.661017, -1.651292], [-78.66125, -1.65178], [-78.661384, -1.651925], [-78.660496, -1.652736], [-78.66009, -1.653015], [-78.660773, -1.653477], [-78.661588, -1.654935], [-78.66259, -1.656272], [-78.662712, -1.656388], [-78.663178, -1.656686], [-78.663751, -1.657204], [-78.667348, -1.652854], [-78.673684, -1.645013], [-78.672825, -1.644931], [-78.671751, -1.644655], [-78.670929, -1.644522], [-78.670026, -1.644414], [-78.668635, -1.644311], [-78.666456, -1.643964], [-78.665188, -1.64356], [-78.664267, -1.643431], [-78.663631, -1.643253], [-78.663336, -1.643384], [-78.663214, -1.64331], [-78.662974, -1.643793], [-78.66211, -1.6452], [-78.66191, -1.645576], [-78.661523, -1.646475], [-78.660939, -1.648314], [-78.660234, -1.64978], [-78.660268, -1.649828], [-78.660355, -1.649867], [-78.660347, -1.650285]]]}}, {"type": "Feature", "properties": {"numero": 10, "clave": "E", "nombre": "PLATAFORMA E", "area_ha": 122.2789, "area_ha_geom": 122.28, "rotulo_lon": -78.679741, "rotulo_lat": -1.654519}, "geometry": {"type": "Polygon", "coordinates": [[[-78.676655, -1.652239], [-78.676826, -1.652466], [-78.675478, -1.654529], [-78.674406, -1.653012], [-78.673452, -1.653769], [-78.673558, -1.653902], [-78.673129, -1.654775], [-78.67221, -1.65613], [-78.674583, -1.658689], [-78.674786, -1.658869], [-78.673997, -1.65966], [-78.674512, -1.660186], [-78.674767, -1.659994], [-78.675001, -1.659556], [-78.675328, -1.659736], [-78.675341, -1.659781], [-78.675151, -1.660213], [-78.675179, -1.660353], [-78.675159, -1.661566], [-78.674983, -1.661659], [-78.675152, -1.661907], [-78.68138, -1.660164], [-78.681411, -1.659981], [-78.680684, -1.659614], [-78.680399, -1.659359], [-78.68046, -1.658964], [-78.680453, -1.658642], [-78.680183, -1.657805], [-78.679767, -1.656689], [-78.680724, -1.655973], [-78.682155, -1.654984], [-78.683174, -1.654781], [-78.683749, -1.654616], [-78.68404, -1.654508], [-78.684676, -1.654174], [-78.68511, -1.653888], [-78.684599, -1.65351], [-78.683988, -1.653139], [-78.684577, -1.652601], [-78.685766, -1.651604], [-78.686123, -1.651348], [-78.686705, -1.651791], [-78.687364, -1.652425], [-78.687839, -1.652145], [-78.686481, -1.6499], [-78.686482, -1.64983], [-78.688205, -1.648093], [-78.688273, -1.647991], [-78.68775, -1.647793], [-78.684661, -1.647136], [-78.683205, -1.648039], [-78.682728, -1.64836], [-78.68214, -1.648827], [-78.680862, -1.649579], [-78.680213, -1.650068], [-78.676655, -1.652239]]]}}, {"type": "Feature", "properties": {"numero": 11, "clave": "Q", "nombre": "PLATAFORMA Q", "area_ha": 191.2945, "area_ha_geom": 191.29, "rotulo_lon": -78.631125, "rotulo_lat": -1.683298}, "geometry": {"type": "Polygon", "coordinates": [[[-78.63762, -1.678886], [-78.637143, -1.677041], [-78.636831, -1.677127], [-78.636646, -1.676477], [-78.636396, -1.676587], [-78.636337, -1.676567], [-78.636284, -1.676599], [-78.636263, -1.67668], [-78.636333, -1.676943], [-78.635938, -1.677044], [-78.636018, -1.677334], [-78.633448, -1.678001], [-78.633366, -1.677653], [-78.633423, -1.677642], [-78.63318, -1.676686], [-78.631933, -1.677018], [-78.631771, -1.676374], [-78.629953, -1.677806], [-78.629945, -1.677044], [-78.630241, -1.676136], [-78.630622, -1.675505], [-78.631217, -1.674915], [-78.630755, -1.674374], [-78.63015, -1.673584], [-78.629753, -1.673146], [-78.629376, -1.673576], [-78.62865, -1.674597], [-78.628443, -1.674941], [-78.628199, -1.675448], [-78.627834, -1.676563], [-78.627622, -1.677087], [-78.626854, -1.678647], [-78.626795, -1.679007], [-78.626613, -1.679265], [-78.626451, -1.679846], [-78.626044, -1.680778], [-78.625468, -1.681834], [-78.625365, -1.681856], [-78.625322, -1.682723], [-78.625445, -1.683805], [-78.625605, -1.684643], [-78.625616, -1.68493], [-78.625711, -1.685139], [-78.626379, -1.685851], [-78.626902, -1.686816], [-78.624979, -1.688022], [-78.624601, -1.687618], [-78.623553, -1.688176], [-78.624394, -1.689513], [-78.625146, -1.68928], [-78.626566, -1.691177], [-78.628722, -1.693944], [-78.629671, -1.692688], [-78.631935, -1.68945], [-78.63515, -1.685001], [-78.636012, -1.684075], [-78.637196, -1.683], [-78.641921, -1.678834], [-78.641416, -1.678243], [-78.639073, -1.678513], [-78.63762, -1.678886]]]}}, {"type": "Feature", "properties": {"numero": 12, "clave": "L", "nombre": "PLATAFORMA L", "area_ha": 148.4338, "area_ha_geom": 148.43, "rotulo_lon": -78.646955, "rotulo_lat": -1.650692}, "geometry": {"type": "Polygon", "coordinates": [[[-78.646193, -1.645407], [-78.646087, -1.645235], [-78.646044, -1.645038], [-78.645979, -1.644897], [-78.645827, -1.644782], [-78.645692, -1.644481], [-78.64559, -1.644326], [-78.645416, -1.644094], [-78.645067, -1.643769], [-78.644936, -1.643542], [-78.644881, -1.643037], [-78.645239, -1.642368], [-78.645325, -1.642137], [-78.645323, -1.64193], [-78.645236, -1.641789], [-78.644717, -1.64149], [-78.644378, -1.641405], [-78.643741, -1.64132], [-78.64352, -1.641206], [-78.643198, -1.640644], [-78.643041, -1.640489], [-78.642525, -1.640232], [-78.642175, -1.639578], [-78.64201, -1.639404], [-78.641436, -1.639174], [-78.641362, -1.639075], [-78.64118, -1.638657], [-78.641086, -1.638558], [-78.640939, -1.638493], [-78.640844, -1.638492], [-78.640649, -1.63856], [-78.640181, -1.638992], [-78.639958, -1.63926], [-78.639797, -1.639573], [-78.639677, -1.639633], [-78.639226, -1.639583], [-78.639044, -1.63959], [-78.638722, -1.639657], [-78.63855, -1.639367], [-78.638431, -1.639043], [-78.638396, -1.639011], [-78.637915, -1.638856], [-78.638655, -1.640529], [-78.641285, -1.646039], [-78.641824, -1.647247], [-78.642853, -1.649865], [-78.643488, -1.651752], [-78.644534, -1.653529], [-78.644794, -1.65414], [-78.645159, -1.655589], [-78.645461, -1.657018], [-78.645582, -1.657373], [-78.64571, -1.657635], [-78.648258, -1.660878], [-78.648792, -1.661865], [-78.648756, -1.661976], [-78.649043, -1.662446], [-78.649456, -1.662494], [-78.649447, -1.662431], [-78.649727, -1.660913], [-78.649934, -1.659468], [-78.649937, -1.65905], [-78.649861, -1.658174], [-78.650251, -1.654619], [-78.651104, -1.651396], [-78.651052, -1.651154], [-78.650591, -1.650407], [-78.650017, -1.649851], [-78.64946, -1.64912], [-78.64944, -1.649], [-78.6495, -1.64887], [-78.64976, -1.64861], [-78.65008, -1.64842], [-78.650232, -1.648297], [-78.650271, -1.648063], [-78.650395, -1.647922], [-78.650128, -1.647701], [-78.650006, -1.647483], [-78.649709, -1.647227], [-78.649542, -1.647008], [-78.649451, -1.646938], [-78.649332, -1.646869], [-78.648908, -1.64679], [-78.64869, -1.646694], [-78.64855, -1.646549], [-78.648511, -1.646434], [-78.648277, -1.646326], [-78.648061, -1.646164], [-78.647816, -1.646147], [-78.647404, -1.645998], [-78.647314, -1.646009], [-78.647238, -1.64612], [-78.647155, -1.646128], [-78.647076, -1.646033], [-78.646949, -1.646002], [-78.646743, -1.645887], [-78.646559, -1.645582], [-78.646193, -1.645407]]]}}, {"type": "Feature", "properties": {"numero": 13, "clave": "M", "nombre": "PLATAFORMA M", "area_ha": 175.5011, "area_ha_geom": 175.5, "rotulo_lon": -78.641016, "rotulo_lat": -1.65729}, "geometry": {"type": "Polygon", "coordinates": [[[-78.641824, -1.647246], [-78.641123, -1.647628], [-78.640003, -1.648092], [-78.638927, -1.648955], [-78.63749, -1.649526], [-78.637223, -1.649577], [-78.637287, -1.649887], [-78.637548, -1.650427], [-78.637621, -1.650666], [-78.637759, -1.651623], [-78.637695, -1.652029], [-78.63754, -1.65249], [-78.637573, -1.654165], [-78.637538, -1.654391], [-78.63696, -1.655604], [-78.636924, -1.655827], [-78.636942, -1.656254], [-78.636886, -1.656457], [-78.636548, -1.657207], [-78.635704, -1.658119], [-78.634341, -1.656958], [-78.633351, -1.658564], [-78.633959, -1.658997], [-78.635167, -1.659661], [-78.636027, -1.660036], [-78.637021, -1.660612], [-78.637491, -1.660935], [-78.640565, -1.66366], [-78.641212, -1.664079], [-78.640222, -1.664573], [-78.640581, -1.665002], [-78.640222, -1.66542], [-78.640582, -1.665803], [-78.64063, -1.665901], [-78.640955, -1.66615], [-78.641437, -1.666337], [-78.642239, -1.667281], [-78.643366, -1.666371], [-78.643585, -1.666118], [-78.644532, -1.665364], [-78.645687, -1.664347], [-78.646923, -1.663345], [-78.647457, -1.664019], [-78.648009, -1.663535], [-78.648467, -1.664114], [-78.649346, -1.663335], [-78.649281, -1.662976], [-78.649192, -1.662685], [-78.648756, -1.661976], [-78.648792, -1.661865], [-78.648258, -1.660878], [-78.64571, -1.657635], [-78.645582, -1.657373], [-78.645461, -1.657018], [-78.645159, -1.655589], [-78.644794, -1.65414], [-78.644534, -1.653529], [-78.643488, -1.651752], [-78.642853, -1.649865], [-78.641824, -1.647246]]]}}, {"type": "Feature", "properties": {"numero": 14, "clave": "O", "nombre": "PLATAFORMA O", "area_ha": 223.7245, "area_ha_geom": 223.72, "rotulo_lon": -78.637978, "rotulo_lat": -1.669163}, "geometry": {"type": "Polygon", "coordinates": [[[-78.632198, -1.668907], [-78.632023, -1.669405], [-78.631713, -1.670025], [-78.631519, -1.670586], [-78.631158, -1.671302], [-78.630566, -1.672286], [-78.629753, -1.673146], [-78.63015, -1.673584], [-78.630755, -1.674374], [-78.631217, -1.674915], [-78.630622, -1.675505], [-78.630241, -1.676136], [-78.629945, -1.677044], [-78.629953, -1.677806], [-78.631771, -1.676374], [-78.631933, -1.677018], [-78.63318, -1.676686], [-78.633423, -1.677642], [-78.633366, -1.677653], [-78.633448, -1.678001], [-78.636018, -1.677334], [-78.635938, -1.677044], [-78.636333, -1.676943], [-78.636263, -1.67668], [-78.636284, -1.676599], [-78.636337, -1.676567], [-78.636396, -1.676587], [-78.636646, -1.676477], [-78.636831, -1.677127], [-78.637143, -1.677041], [-78.63762, -1.678886], [-78.639073, -1.678513], [-78.641416, -1.678243], [-78.641445, -1.678277], [-78.642588, -1.67717], [-78.64309, -1.677751], [-78.644856, -1.676219], [-78.644358, -1.67563], [-78.644935, -1.675122], [-78.644014, -1.674037], [-78.64514, -1.673032], [-78.644203, -1.671936], [-78.643097, -1.672946], [-78.642597, -1.672372], [-78.644867, -1.670371], [-78.642674, -1.66779], [-78.64216, -1.668211], [-78.641718, -1.66769], [-78.642239, -1.667281], [-78.641437, -1.666337], [-78.640955, -1.66615], [-78.64063, -1.665901], [-78.640582, -1.665803], [-78.640222, -1.66542], [-78.640581, -1.665002], [-78.640222, -1.664573], [-78.641212, -1.664079], [-78.640565, -1.66366], [-78.637491, -1.660935], [-78.637021, -1.660612], [-78.636027, -1.660036], [-78.635167, -1.659661], [-78.633959, -1.658997], [-78.633852, -1.659076], [-78.633602, -1.659147], [-78.633331, -1.659298], [-78.632982, -1.659699], [-78.63266, -1.659914], [-78.632139, -1.660609], [-78.631968, -1.660731], [-78.631618, -1.660709], [-78.631262, -1.660745], [-78.631048, -1.660924], [-78.631244, -1.661113], [-78.633013, -1.662371], [-78.633601, -1.662724], [-78.634812, -1.662947], [-78.635449, -1.663236], [-78.634935, -1.663953], [-78.634477, -1.664699], [-78.634035, -1.665272], [-78.633449, -1.666133], [-78.633248, -1.666602], [-78.632993, -1.6671], [-78.632198, -1.668907]]]}}, {"type": "Feature", "properties": {"numero": 15, "clave": "P", "nombre": "PLATAFORMA P", "area_ha": 152.3491, "area_ha_geom": 152.35, "rotulo_lon": -78.642009, "rotulo_lat": -1.686073}, "geometry": {"type": "Polygon", "coordinates": [[[-78.643025, -1.680165], [-78.642997, -1.680114], [-78.641921, -1.678834], [-78.637196, -1.683], [-78.636012, -1.684075], [-78.63515, -1.685001], [-78.632179, -1.689184], [-78.631936, -1.68945], [-78.632212, -1.689642], [-78.632913, -1.689975], [-78.633678, -1.690124], [-78.634884, -1.690186], [-78.635577, -1.690168], [-78.63613, -1.690062], [-78.636607, -1.689908], [-78.637043, -1.689698], [-78.637397, -1.689469], [-78.638661, -1.690839], [-78.640994, -1.693477], [-78.64161, -1.69276], [-78.641992, -1.692455], [-78.642229, -1.692346], [-78.642658, -1.691966], [-78.643435, -1.691155], [-78.643968, -1.690475], [-78.643948, -1.690148], [-78.643967, -1.690317], [-78.644334, -1.690355], [-78.644516, -1.690479], [-78.645158, -1.691442], [-78.6459, -1.692112], [-78.64607, -1.6923], [-78.647148, -1.692301], [-78.647264, -1.692132], [-78.647436, -1.691971], [-78.647508, -1.691702], [-78.647431, -1.691068], [-78.647556, -1.690895], [-78.647871, -1.690931], [-78.648156, -1.690752], [-78.648585, -1.689826], [-78.648889, -1.689384], [-78.649056, -1.688947], [-78.649169, -1.68878], [-78.649318, -1.688637], [-78.649555, -1.688565], [-78.650126, -1.688578], [-78.65075, -1.688704], [-78.651023, -1.688663], [-78.65124, -1.68846], [-78.650821, -1.688467], [-78.650465, -1.688413], [-78.650031, -1.688299], [-78.64999, -1.688185], [-78.650151, -1.687612], [-78.649938, -1.686631], [-78.649493, -1.685835], [-78.649244, -1.685461], [-78.643606, -1.68578], [-78.64356, -1.68573], [-78.643373, -1.684158], [-78.643025, -1.680165]]]}}, {"type": "Feature", "properties": {"numero": 16, "clave": "\u00d1", "nombre": "PLATAFORMA \u00d1", "area_ha": 196.6383, "area_ha_geom": 196.64, "rotulo_lon": -78.649257, "rotulo_lat": -1.680761}, "geometry": {"type": "Polygon", "coordinates": [[[-78.648066, -1.675383], [-78.648629, -1.674907], [-78.647685, -1.673741], [-78.647206, -1.673172], [-78.64661, -1.67368], [-78.646145, -1.673066], [-78.644446, -1.674539], [-78.644935, -1.675122], [-78.644358, -1.67563], [-78.644856, -1.676219], [-78.64309, -1.677751], [-78.642588, -1.67717], [-78.641445, -1.678277], [-78.643025, -1.680165], [-78.643373, -1.684158], [-78.64356, -1.68573], [-78.643606, -1.68578], [-78.649244, -1.685461], [-78.649493, -1.685835], [-78.649938, -1.686631], [-78.650151, -1.687612], [-78.64999, -1.688185], [-78.650031, -1.688299], [-78.650465, -1.688413], [-78.650821, -1.688467], [-78.65124, -1.68846], [-78.651541, -1.688179], [-78.651832, -1.688066], [-78.652824, -1.687888], [-78.653169, -1.687619], [-78.653705, -1.686968], [-78.653997, -1.686299], [-78.654122, -1.685934], [-78.654259, -1.685779], [-78.654384, -1.685713], [-78.654645, -1.685719], [-78.654829, -1.685779], [-78.65499, -1.685756], [-78.655162, -1.685564], [-78.655396, -1.685169], [-78.65612, -1.684244], [-78.656513, -1.683802], [-78.656787, -1.683707], [-78.65728, -1.683761], [-78.65747, -1.68372], [-78.65769, -1.683337], [-78.658101, -1.683039], [-78.658422, -1.682985], [-78.658796, -1.683022], [-78.659152, -1.682968], [-78.660138, -1.683245], [-78.660685, -1.683197], [-78.660863, -1.683126], [-78.661309, -1.683234], [-78.661502, -1.683222], [-78.662016, -1.683098], [-78.662215, -1.683151], [-78.662439, -1.683343], [-78.662586, -1.683268], [-78.662648, -1.682876], [-78.66283, -1.682545], [-78.662952, -1.68239], [-78.662864, -1.682342], [-78.662708, -1.682175], [-78.662739, -1.682154], [-78.662478, -1.681659], [-78.66235, -1.681348], [-78.660856, -1.678634], [-78.660666, -1.678342], [-78.65994, -1.677423], [-78.65916, -1.676555], [-78.657885, -1.677974], [-78.657455, -1.678514], [-78.656443, -1.679685], [-78.65552, -1.680886], [-78.653017, -1.677904], [-78.652463, -1.678378], [-78.651506, -1.677216], [-78.652067, -1.676755], [-78.651577, -1.676173], [-78.651012, -1.676666], [-78.650142, -1.675568], [-78.649611, -1.676078], [-78.649145, -1.675488], [-78.64854, -1.67598], [-78.648066, -1.675383]]]}}, {"type": "Feature", "properties": {"numero": 17, "clave": "N", "nombre": "PLATAFORMA N", "area_ha": 106.2064, "area_ha_geom": 106.21, "rotulo_lon": -78.676913, "rotulo_lat": -1.689125}, "geometry": {"type": "Polygon", "coordinates": [[[-78.672873, -1.691129], [-78.673126, -1.691976], [-78.673527, -1.692579], [-78.67346, -1.692777], [-78.673247, -1.693069], [-78.673164, -1.693342], [-78.673307, -1.693664], [-78.673597, -1.693731], [-78.673919, -1.69375], [-78.674244, -1.694433], [-78.674385, -1.695361], [-78.674346, -1.695441], [-78.674417, -1.695699], [-78.674507, -1.69579], [-78.674631, -1.695776], [-78.674821, -1.695705], [-78.675287, -1.695413], [-78.675321, -1.695289], [-78.675392, -1.695217], [-78.675839, -1.694869], [-78.675762, -1.694743], [-78.675826, -1.694677], [-78.676008, -1.694274], [-78.676273, -1.694185], [-78.676372, -1.694338], [-78.676515, -1.694291], [-78.676639, -1.694133], [-78.676692, -1.693951], [-78.676952, -1.69371], [-78.67816, -1.693685], [-78.678167, -1.693281], [-78.678039, -1.69272], [-78.678156, -1.69252], [-78.678213, -1.692138], [-78.678946, -1.691385], [-78.679064, -1.690957], [-78.679124, -1.690998], [-78.679333, -1.691314], [-78.679437, -1.691319], [-78.679523, -1.691118], [-78.679821, -1.69075], [-78.680345, -1.690235], [-78.680353, -1.690003], [-78.68068, -1.689833], [-78.680651, -1.689761], [-78.680372, -1.689455], [-78.680363, -1.689403], [-78.680462, -1.689187], [-78.680771, -1.689072], [-78.680899, -1.688991], [-78.68089, -1.688895], [-78.680348, -1.68878], [-78.680239, -1.688687], [-78.680092, -1.688617], [-78.679731, -1.688234], [-78.679817, -1.688081], [-78.679612, -1.687875], [-78.67999, -1.687465], [-78.679385, -1.686923], [-78.679861, -1.686431], [-78.679681, -1.686143], [-78.679583, -1.685689], [-78.680163, -1.685173], [-78.680058, -1.685106], [-78.679739, -1.684991], [-78.679778, -1.68478], [-78.679859, -1.684632], [-78.679825, -1.684603], [-78.679921, -1.684441], [-78.680031, -1.684335], [-78.679998, -1.684131], [-78.680118, -1.683863], [-78.680738, -1.683257], [-78.681119, -1.68263], [-78.68035, -1.682426], [-78.679924, -1.683034], [-78.679612, -1.683354], [-78.679265, -1.683346], [-78.679076, -1.683301], [-78.67899, -1.683325], [-78.679001, -1.683473], [-78.678735, -1.683699], [-78.678412, -1.683869], [-78.677651, -1.684026], [-78.677452, -1.684055], [-78.677265, -1.683809], [-78.676986, -1.683967], [-78.676796, -1.684235], [-78.676585, -1.684431], [-78.676415, -1.684487], [-78.676222, -1.684815], [-78.675636, -1.685126], [-78.675505, -1.685467], [-78.675177, -1.685344], [-78.675011, -1.685205], [-78.674375, -1.684899], [-78.673696, -1.684907], [-78.672948, -1.684797], [-78.672573, -1.684546], [-78.672337, -1.684457], [-78.671902, -1.68447], [-78.671563, -1.684347], [-78.671162, -1.68412], [-78.670684, -1.684067], [-78.670066, -1.68357], [-78.669639, -1.683457], [-78.669517, -1.683489], [-78.668799, -1.683398], [-78.668087, -1.683087], [-78.667136, -1.682846], [-78.666471, -1.682582], [-78.665806, -1.68239], [-78.665212, -1.682366], [-78.664359, -1.682383], [-78.663763, -1.682483], [-78.663577, -1.682454], [-78.663411, -1.682358], [-78.66324, -1.68243], [-78.663021, -1.682429], [-78.662952, -1.682391], [-78.66283, -1.682545], [-78.662648, -1.682876], [-78.662586, -1.683268], [-78.662438, -1.683343], [-78.662585, -1.68375], [-78.662646, -1.684041], [-78.663026, -1.684446], [-78.663726, -1.684763], [-78.664159, -1.684873], [-78.66439, -1.684747], [-78.664894, -1.684777], [-78.665113, -1.684873], [-78.665303, -1.684873], [-78.665498, -1.684643], [-78.665641, -1.68461], [-78.665803, -1.684621], [-78.665825, -1.684587], [-78.666493, -1.684648], [-78.666611, -1.684525], [-78.666896, -1.684439], [-78.667438, -1.68443], [-78.667647, -1.684507], [-78.668084, -1.684584], [-78.668246, -1.684728], [-78.668445, -1.684848], [-78.668603, -1.685013], [-78.668916, -1.685146], [-78.669015, -1.685107], [-78.669605, -1.685146], [-78.669795, -1.685218], [-78.66989, -1.685328], [-78.669999, -1.685625], [-78.670184, -1.685768], [-78.670412, -1.685903], [-78.670806, -1.686018], [-78.670961, -1.685971], [-78.671082, -1.686004], [-78.671291, -1.686157], [-78.671495, -1.686325], [-78.671628, -1.686579], [-78.671623, -1.686732], [-78.671718, -1.686961], [-78.671827, -1.687095], [-78.671936, -1.687086], [-78.672117, -1.687196], [-78.672164, -1.687746], [-78.672401, -1.688029], [-78.672876, -1.688493], [-78.673313, -1.688661], [-78.673465, -1.688786], [-78.673465, -1.688963], [-78.673246, -1.689054], [-78.673136, -1.689259], [-78.673103, -1.689604], [-78.67327, -1.690545], [-78.672873, -1.691129]]]}}, {"type": "Feature", "properties": {"numero": 18, "clave": "J", "nombre": "PLATAFORMA J", "area_ha": 236.2313, "area_ha_geom": 236.23, "rotulo_lon": -78.662777, "rotulo_lat": -1.669501}, "geometry": {"type": "Polygon", "coordinates": [[[-78.65916, -1.676555], [-78.65994, -1.677423], [-78.660666, -1.678342], [-78.660856, -1.678634], [-78.66235, -1.681348], [-78.662478, -1.681659], [-78.662739, -1.682155], [-78.663147, -1.68198], [-78.663668, -1.681998], [-78.663721, -1.68183], [-78.663658, -1.681213], [-78.663512, -1.680807], [-78.66353, -1.680635], [-78.663737, -1.680326], [-78.663788, -1.67972], [-78.66402, -1.679434], [-78.664049, -1.67915], [-78.66391, -1.678823], [-78.663972, -1.678016], [-78.66368, -1.677646], [-78.663716, -1.677388], [-78.664301, -1.676994], [-78.664383, -1.676822], [-78.664487, -1.676754], [-78.664661, -1.676934], [-78.664765, -1.676927], [-78.664832, -1.676887], [-78.66485, -1.676668], [-78.664655, -1.676012], [-78.664691, -1.6758], [-78.664535, -1.675434], [-78.664903, -1.674749], [-78.665599, -1.674201], [-78.665774, -1.6739], [-78.66596, -1.67334], [-78.666198, -1.673405], [-78.666309, -1.673298], [-78.666529, -1.672388], [-78.66685, -1.67198], [-78.666951, -1.671463], [-78.667307, -1.671614], [-78.667614, -1.671557], [-78.667971, -1.670969], [-78.668192, -1.670869], [-78.668221, -1.670726], [-78.6682, -1.670496], [-78.668264, -1.670331], [-78.668428, -1.670209], [-78.669155, -1.670268], [-78.669573, -1.670087], [-78.669365, -1.669611], [-78.669182, -1.668907], [-78.669164, -1.66837], [-78.668137, -1.667277], [-78.667972, -1.667315], [-78.666909, -1.665838], [-78.666754, -1.665705], [-78.665691, -1.665357], [-78.665296, -1.665151], [-78.664997, -1.664872], [-78.662838, -1.661577], [-78.663026, -1.661613], [-78.663144, -1.661583], [-78.663819, -1.661246], [-78.66481, -1.660453], [-78.664553, -1.660204], [-78.664382, -1.659924], [-78.66434, -1.6595], [-78.66402, -1.658567], [-78.663843, -1.657928], [-78.663889, -1.657029], [-78.663786, -1.657152], [-78.663712, -1.65717], [-78.663751, -1.657204], [-78.662031, -1.659754], [-78.661913, -1.66002], [-78.660933, -1.661502], [-78.658641, -1.66482], [-78.658309, -1.664472], [-78.656543, -1.666015], [-78.656069, -1.665471], [-78.654934, -1.666474], [-78.655928, -1.667625], [-78.655869, -1.66767], [-78.656841, -1.668819], [-78.656976, -1.668781], [-78.65704, -1.668869], [-78.655341, -1.670163], [-78.65573, -1.670656], [-78.655221, -1.671103], [-78.655746, -1.67173], [-78.656232, -1.671307], [-78.6566, -1.671797], [-78.656383, -1.672018], [-78.651577, -1.676173], [-78.652067, -1.676755], [-78.651506, -1.677216], [-78.652463, -1.678378], [-78.653016, -1.677903], [-78.65552, -1.680886], [-78.656443, -1.679685], [-78.657756, -1.678136], [-78.65916, -1.676555]]]}}]}